"name","email","phone","clean_name","clean_email","clean_phone","data_quality_map","name_exception","email_exception","phone_exception","phone_ext"
"Weldon Schmeler","antwan36@yahoo.com","02169 243024","Weldon  Schmeler","antwan36@yahoo.com","02169 243024","","","","",NA
"Bettie Kshlerin","rhiannon.renner@gmail.com","05566 660245","Bettie  Kshlerin","rhiannon.renner@gmail.com","05566 660245","","","","",NA
"Conner Watsica","audreanne_morissette@yahoo.com","01697 703830","Conner  Watsica","audreanne_morissette@yahoo.com","01697 703830","","","","",NA
"Abbie Adams","jane_bartoletti@yahoo.com","01535 637480","Abbie  Adams","jane_bartoletti@yahoo.com","01535 637480","","","","",NA
"Alexandrine Pagac","nelle_bernhard70@gmail.com","01717 026928","Alexandrine  Pagac","nelle_bernhard70@gmail.com","01717 026928","","","","",NA
"Mr. Idell O'Reilly","german_wilkinson65yahoo.com","02521 196909","Mr.  Idell  O' Reilly","german_wilkinson65yahoo.com","02521 196909","[ ""A1"" ]","","TRUE","",NA
"Shawn Koelpin","fred_paucek33@yahoo.com","03596 285859","Shawn  Koelpin","fred_paucek33@yahoo.com","03596 285859","","","","",NA
"Myriam Stanton","madisen7@yahoo.com","01505 566540","Myriam  Stanton","madisen7@yahoo.com","01505 566540","","","","",NA
"Miguel Homenick","elton.friesen@gmail.com","05009 738860","Miguel  Homenick","elton.friesen@gmail.com","05009 738860","","","","",NA
"Eliezer Brown","yoshiko47@yahoo.com","08000 458532","Eliezer  Brown","yoshiko47@yahoo.com","08000 458532","","","","",NA
"Maxwell Beatty","kirstin22@hotmail.com","05606 782501","Maxwell  Beatty","kirstin22@hotmail.com","05606 782501","","","","",NA
"Andreanne Yost","miguel_rohan37@yahoo.com","05555 511800","Andreanne  Yost","miguel_rohan37@yahoo.com","05555 511800","","","","",NA
"Dr. Rosella Brown","braden59@hotmail.com","01118 579099","Dr.  Rosella  Brown","braden59@hotmail.com","01118 579099","","","","",NA
"Talia Kshlerin","janick23@yahoo.com","05650 000765","Talia  Kshlerin","janick23@yahoo.com","05650 000765","","","","",NA
"Dixie Stehr","kelly38@gmail.com","01216 258045","Dixie  Stehr","kelly38@gmail.com","01216 258045","","","","",NA
"Layla Beatty","tate.stoltenberg27@gmail.com","05509 596508","Layla  Beatty","tate.stoltenberg27@gmail.com","05509 596508","","","","",NA
"Madison Bailey","matt_hoeger93@gmail.com","01880 910975","Madison  Bailey","matt_hoeger93@gmail.com","01880 910975","","","","",NA
"Adrianna Hand","myrtis32@yahoo.com","05615 632601","Adrianna  Hand","myrtis32@yahoo.com","05615 632601","","","","",NA
"Vicenta Purdy DDS","dorcas_ullrich@gmail.com","05009 467840","Vicenta  Purdy  D D S","dorcas_ullrich@gmail.com","05009 467840","","","","",NA
"Wilburn Predovic","addison8@gmail.com","01818 960196","Wilburn  Predovic","addison8@gmail.com","01818 960196","","","","",NA
"Dayton Skiles","brielle.ryan82@hotmail.com","01317 023840","Dayton  Skiles","brielle.ryan82@hotmail.com","01317 023840","","","","",NA
"Bridie Quitzon","sonia_labadie11@gmail.com","05574 260243","Bridie  Quitzon","sonia_labadie11@gmail.com","05574 260243","","","","",NA
"Kenyatta Dooley","cornelius.dickens7@gmail.com","01114 568694","Kenyatta  Dooley","cornelius.dickens7@gmail.com","01114 568694","","","","",NA
"Imelda Langosh","gia_turcotte@hotmail.com","08094 561452","Imelda  Langosh","gia_turcotte@hotmail.com","08094 561452","","","","",NA
"Dr. Randall Batz","calista84@hotmail.com","01150 333977","Dr.  Randall  Batz","calista84@hotmail.com","01150 333977","","","","",NA
"Jay Stanton","eveline.larkin17@gmail.com","01876 570979","Jay  Stanton","eveline.larkin17@gmail.com","01876 570979","","","","",NA
"Johathan Yundt","rahsaan_jaskolski99@yahoo.com","05552 998951","Johathan  Yundt","rahsaan_jaskolski99@yahoo.com","05552 998951","","","","",NA
"Keanu Runolfsdottir","reba_powlowski@yahoo.com","08007 501363","Keanu  Runolfsdottir","reba_powlowski@yahoo.com","08007 501363","","","","",NA
"Joshua Lemke","eli_jacobs33@hotmail.c om","01913 258131","Joshua  Lemke","eli_jacobs33@hotmail.com","01913 258131","[ ""A1"", ""A2"" ]","","TRUE","",NA
"Rigoberto Johnson","tess98@gmail.com","08005 279620","Rigoberto  Johnson","tess98@gmail.com","08005 279620","","","","",NA
"Fern Stark","mackenzie77@yahoo.com","08004 438080","Fern  Stark","mackenzie77@yahoo.com","08004 438080","","","","",NA
"Lurline Greenfelder","elliott70@yahoo.com","01864 577803","Lurline  Greenfelder","elliott70@yahoo.com","01864 577803","","","","",NA
"Katrine Crist","clair.cronin89@yahoo.com","03772 774875","Katrine  Crist","clair.cronin89@yahoo.com","03772 774875","","","","",NA
"Jed Rice","otho.hane54@hotmail.com","01053 068940","Jed  Rice","otho.hane54@hotmail.com","01053 068940","","","","",NA
"Rubie Harvey DDS","melany66@hotmail.com","01697 753150","Rubie  Harvey  D D S","melany66@hotmail.com","01697 753150","","","","",NA
"Muriel Goyette","fatima_schmidt1@yahoo.com","01192 682201","Muriel  Goyette","fatima_schmidt1@yahoo.com","01192 682201","","","","",NA
"Caleigh Heidenreich","kavon_lowe67@hotmail.com","05575 284990","Caleigh  Heidenreich","kavon_lowe67@hotmail.com","05575 284990","","","","",NA
"Lauryn Gutkowski","cassandre53@hotmail.com","05667 256039","Lauryn  Gutkowski","cassandre53@hotmail.com","05667 256039","","","","",NA
"Angelo Mayert","brandyn72@gmail.com","01639 328620","Angelo  Mayert","brandyn72@gmail.com","01639 328620","","","","",NA
"Dr. Madelynn Weber","brian_feest45^^@gmail.com","01266 828593","Dr.  Madelynn  Weber","brian_feest45@gmail.com","01266 828593","[ ""A1"", ""A2"" ]","","TRUE","",NA
"Adeline Goodwin","dylan_rohan@yahoo.com","08007 589720","Adeline  Goodwin","dylan_rohan@yahoo.com","08007 589720","","","","",NA
"Stanton Kris","ludwig_abernathy84@yahoo.com","03172 203181","Stanton  Kris","ludwig_abernathy84@yahoo.com","03172 203181","","","","",NA
"Conner Funk","breana_murray26@hotmail.com","08245 754352","Conner  Funk","breana_murray26@hotmail.com","08245 754352","","","","",NA
"Clarabelle Zemlak","josiane_feest@gmail.com","05643 248637","Clarabelle  Zemlak","josiane_feest@gmail.com","05643 248637","","","","",NA
"Miss Wilfred Jakubowski","skylar_luettgen97@yahoo.com","05509 084259","Miss  Wilfred  Jakubowski","skylar_luettgen97@yahoo.com","05509 084259","","","","",NA
"Agustin Moen","brock.langosh19@gmail.com","02828 034531","Agustin  Moen","brock.langosh19@gmail.com","02828 034531","","","","",NA
"Caesar Mitchell","pearlie37@hotmail.com","01158 282760","Caesar  Mitchell","pearlie37@hotmail.com","01158 282760","","","","",NA
"Jorge Spencer","danyka_hermiston66@hotmail.com","01143 871100","Jorge  Spencer","danyka_hermiston66@hotmail.com","01143 871100","","","","",NA
"Bryce Mills","genoveva92@hotmail.com","09894 128926","Bryce  Mills","genoveva92@hotmail.com","09894 128926","","","","",NA
"Uriel Fadel","pablo.okuneva11@yahoo.com","01916 401635","Uriel  Fadel","pablo.okuneva11@yahoo.com","01916 401635","","","","",NA
"Ava Goodwin","dorothea.kreiger@yahoo.com","01108 040754","Ava  Goodwin","dorothea.kreiger@yahoo.com","01108 040754","","","","",NA
"Miles Kemmer","shane.keeling92@hotmail.com","09840 532309","Miles  Kemmer","shane.keeling92@hotmail.com","09840 532309","","","","",NA
"Dr. Dee Boyer","bradford_hilll@gmail.com","03109 258646","Dr.  Dee  Boyer","bradford_hilll@gmail.com","03109 258646","","","","",NA
"Ashley Braun","julien.schaden81@yahoo.com","05004 384700","Ashley  Braun","julien.schaden81@yahoo.com","05004 384700","","","","",NA
"Arvel Kuhlman","frederic.dietrich73@hotmail.com","08005 426323","Arvel  Kuhlman","frederic.dietrich73@hotmail.com","08005 426323","","","","",NA
"Bernadette Kemmer","kayden42@yahoo.com","08002 080378","Bernadette  Kemmer","kayden42@yahoo.com","08002 080378","","","","",NA
"Peter Lubowitz","Elenora_Rowe@yahoo.com","08005 404310","Peter  Lubowitz","elenora_rowe@yahoo.com","08005 404310","[ ""A2"" ]","","","",NA
"Chad King","kaleigh.corkery@hotmail.com","09234 253906","Chad  King","kaleigh.corkery@hotmail.com","09234 253906","","","","",NA
"Simone Sipes","sadie.balistreri47@hotmail.com","05684 345644","Simone  Sipes","sadie.balistreri47@hotmail.com","05684 345644","","","","",NA
"Ernie Tremblay","haylee5@yahoo.com","05695 455691","Ernie  Tremblay","haylee5@yahoo.com","05695 455691","","","","",NA
"Brock Volkman","carmine.nader@hotmail.com","01088 698685","Brock  Volkman","carmine.nader@hotmail.com","01088 698685","","","","",NA
"Kendra Bergstrom","walton_hills@gmail.com","01480 300510","Kendra  Bergstrom","walton_hills@gmail.com","01480 300510","","","","",NA
"Bradley Ebert","zoila_hodkiewicz@gmail.com","03050 048951","Bradley  Ebert","zoila_hodkiewicz@gmail.com","03050 048951","","","","",NA
"Lawrence Abbott","carlie.block@gmail.com","08273 452623","Lawrence  Abbott","carlie.block@gmail.com","08273 452623","","","","",NA
"Mr. Russ Wiegand","cindy85@hotmail.com","02838 567134","Mr.  Russ  Wiegand","cindy85@hotmail.com","02838 567134","","","","",NA
"Javon Boyle","forrest_oconner91@yahoo.com","01164 093209","Javon  Boyle","forrest_oconner91@yahoo.com","01164 093209","","","","",NA
"Santa Ryan","cassidy79@hotmail.com","02164 753633","Santa  Ryan","cassidy79@hotmail.com","02164 753633","","","","",NA
"Jayde Littel","marielle82@hotmail.com","02933 789239","Jayde  Littel","marielle82@hotmail.com","02933 789239","","","","",NA
"Dr. Chesley Hoppe","shaina_okon@hotmail.com","01652 008077","Dr.  Chesley  Hoppe","shaina_okon@hotmail.com","01652 008077","","","","",NA
"Hattie Schiller","brisa.oberbrunner@yahoo.com","01256 911475","Hattie  Schiller","brisa.oberbrunner@yahoo.com","01256 911475","","","","",NA
"Gail Williamson","johann.ryan49@yahoo.com","01152 429789","Gail  Williamson","johann.ryan49@yahoo.com","01152 429789","","","","",NA
"Jermaine Miller","lori.keebler34@yahoo.com","08005 852860","Jermaine  Miller","lori.keebler34@yahoo.com","08005 852860","","","","",NA
"Helene Jacobs","demetris82@hotmail.com","01418 260377","Helene  Jacobs","demetris82@hotmail.com","01418 260377","","","","",NA
"London Erdman","anahi.buckridge9@hotmail.com","01697 765690","London  Erdman","anahi.buckridge9@hotmail.com","01697 765690","","","","",NA
"Elyse Tromp","magnolia.kuhn44@gmail.com","01519 019065","Elyse  Tromp","magnolia.kuhn44@gmail.com","01519 019065","","","","",NA
"Ervin Labadie","audra_batz94@hotmail.com","01123 575132","Ervin  Labadie","audra_batz94@hotmail.com","01123 575132","","","","",NA
"Clint Labadie","mya2@gmail.com","01191 368474","Clint  Labadie","mya2@gmail.com","01191 368474","","","","",NA
"Carson Harvey DVM","hilma_walsh65@yahoo.com","01191 657087","Carson  Harvey  D V M","hilma_walsh65@yahoo.com","01191 657087","","","","",NA
"Anissa Rodriguez DDS","dejuan4@hotmail.com","03830 304935","Anissa  Rodriguez  D D S","dejuan4@hotmail.com","03830 304935","","","","",NA
"Wade Kirlin","soledad.beahan93@hotmail.com","09084 605542","Wade  Kirlin","soledad.beahan93@hotmail.com","09084 605542","","","","",NA
"Jaunita Hessel","mylene.hickle@yahoo.com","01697 769690","Jaunita  Hessel","mylene.hickle@yahoo.com","01697 769690","","","","",NA
"Roel Kessler DDS","zachary3@hotmail.com","01213 129236","Roel  Kessler  D D S","zachary3@hotmail.com","01213 129236","","","","",NA
"Markus Leffler","rosanna.morissette99@gmail.com","05004 145410","Markus  Leffler","rosanna.morissette99@gmail.com","05004 145410","","","","",NA
"Ronny Schultz","jailyn_gaylord@yahoo.com","01198 719120","Ronny  Schultz","jailyn_gaylord@yahoo.com","01198 719120","","","","",NA
"Abe Pacocha","neva47@gmail.com","01946 834820","Abe  Pacocha","neva47@gmail.com","01946 834820","","","","",NA
"Lelah Schmidt","eleazar_littel94@gmail.com","08001 923449","Lelah  Schmidt","eleazar_littel94@gmail.com","08001 923449","","","","",NA
"Lucy Davis","hazle_tremblay47@hotmail.com","01417 125366","Lucy  Davis","hazle_tremblay47@hotmail.com","01417 125366","","","","",NA
"Kelly Walker","sheldon98@yahoo.com","03382 437332","Kelly  Walker","sheldon98@yahoo.com","03382 437332","","","","",NA
"Miss Stevie Hyatt","bennett_lesch50@yahoo.com","08007 410897","Miss  Stevie  Hyatt","bennett_lesch50@yahoo.com","08007 410897","","","","",NA
"Mohammad Wehner","deron.casper@gmail.com","01136 516609","Mohammad  Wehner","deron.casper@gmail.com","01136 516609","","","","",NA
"Tyree Mohr","keegan_bradtke85@hotmail.com","05589 830450","Tyree  Mohr","keegan_bradtke85@hotmail.com","05589 830450","","","","",NA
"Amely Homenick","hugh.macgyver@yahoo.com","01697 794740","Amely  Homenick","hugh.macgyver@yahoo.com","01697 794740","","","","",NA
"Rahul Welch II","jessy.klein@gmail.com","01978 334199","Rahul  Welch  I I","jessy.klein@gmail.com","01978 334199","","","","",NA
"Easter Hagenes","leonel_blanda@hotmail.com","01035 944643","Easter  Hagenes","leonel_blanda@hotmail.com","01035 944643","","","","",NA
"Dr. Beaulah Trantow","josiah.harris45@gmail.com","05584 938584","Dr.  Beaulah  Trantow","josiah.harris45@gmail.com","05584 938584","","","","",NA
"Chadd Stokes MD","angela67@gmail.com","02001 738830","Chadd  Stokes  M D","angela67@gmail.com","02001 738830","","","","",NA
"Maeve Ebert","niko69@yahoo.com","01697 733300","Maeve  Ebert","niko69@yahoo.com","01697 733300","","","","",NA
"Sherwood Parisian","rod_bergstrom@yahoo.com","05638 315437","Sherwood  Parisian","rod_bergstrom@yahoo.com","05638 315437","","","","",NA
"Jamal Mohr","velda.mosciski@yahoo.com","01119 200660","Jamal  Mohr","velda.mosciski@yahoo.com","01119 200660","","","","",NA
"Iva Grady","ilene_greenholt@hotmail.com","05002 803420","Iva  Grady","ilene_greenholt@hotmail.com","05002 803420","","","","",NA
"Mrs. Friedrich Mann","amani.oconnell76@gmail.com","05001 577790","Mrs.  Friedrich  Mann","amani.oconnell76@gmail.com","05001 577790","","","","",NA
"Judson Jenkins","dee_macejkovic@yahoo.com","01659 185629","Judson  Jenkins","dee_macejkovic@yahoo.com","01659 185629","","","","",NA
"Deontae Murphy","chaz_jones97@hotmail.com","05006 144660","Deontae  Murphy","chaz_jones97@hotmail.com","05006 144660","","","","",NA
"Moshe Kshlerin","cathryn14@yahoo.com","05005 380690","Moshe  Kshlerin","cathryn14@yahoo.com","05005 380690","","","","",NA
"Lauretta Cassin MD","rosario_mills39@gmail.com","03998 685758","Lauretta  Cassin  M D","rosario_mills39@gmail.com","03998 685758","","","","",NA
"Loren Herzog","lilliana_walter@yahoo.com","01317 080300","Loren  Herzog","lilliana_walter@yahoo.com","01317 080300","","","","",NA
"Karli Kuhlman II","efren.bergnaum26@hotmail.com","03232 491763","Karli  Kuhlman  I I","efren.bergnaum26@hotmail.com","03232 491763","","","","",NA
"Miss Otha Stehr","grayson_waters39@gmail.com","08006 147270","Miss  Otha  Stehr","grayson_waters39@gmail.com","08006 147270","","","","",NA
"Dena Corkery","juanita.koepp@gmail.com","05683 549368","Dena  Corkery","juanita.koepp@gmail.com","05683 549368","","","","",NA
"Elisa Walter","thad.lockman40@yahoo.com","08008 965975","Elisa  Walter","thad.lockman40@yahoo.com","08008 965975","","","","",NA
"Kristina Nolan","holly_corkery69@hotmail.com","05565 984789","Kristina  Nolan","holly_corkery69@hotmail.com","05565 984789","","","","",NA
"Leann Hauck","domenick.hermiston@hotmail.com","05545 351849","Leann  Hauck","domenick.hermiston@hotmail.com","05545 351849","","","","",NA
"Miss Teresa Ebert","cindy48@yahoo.com","01226 910927","Miss  Teresa  Ebert","cindy48@yahoo.com","01226 910927","","","","",NA
"Ashley Kreiger","paul2@yahoo.com","01097 339837","Ashley  Kreiger","paul2@yahoo.com","01097 339837","","","","",NA
"Randall Murazik","callie1@gmail.com","08812 042596","Randall  Murazik","callie1@gmail.com","08812 042596","","","","",NA
"Queen Ziemann","courtney27@gmail.com","05521 306888","Queen  Ziemann","courtney27@gmail.com","05521 306888","","","","",NA
"Francisco Miller","carter_boehm64@yahoo.com","08006 PHONE1","Francisco  Miller","carter_boehm64@yahoo.com","08006 746631","[ ""C1"" ]","","","",NA
"Alicia Bernier","jammie5@yahoo.com","01999 446780","Alicia  Bernier","jammie5@yahoo.com","01999 446780","","","","",NA
"Gwen Towne","lonzo.waters32@hotmail.com","03299 011759","Gwen  Towne","lonzo.waters32@hotmail.com","03299 011759","","","","",NA
"Ashlee Leuschke","ansel59@yahoo.com","01990 315922","Ashlee  Leuschke","ansel59@yahoo.com","01990 315922","","","","",NA
"Keshawn Metz II","christiana.lebsack@gmail.com","01607 351775","Keshawn  Metz  I I","christiana.lebsack@gmail.com","01607 351775","","","","",NA
"Hailey Schulist","vinnie.shields67@gmail.com","09738 941518","Hailey  Schulist","vinnie.shields67@gmail.com","09738 941518","","","","",NA
"Geovany Ebert","abagail_boehm@gmail.com","05005 064610","Geovany  Ebert","abagail_boehm@gmail.com","05005 064610","","","","",NA
"Domenica Gaylord","rudy94@gmail.com","01103 750940","Domenica  Gaylord","rudy94@gmail.com","01103 750940","","","","",NA
"Thalia Casper Sr.","quinn72@yahoo.com","01180 547708","Thalia  Casper  Sr.","quinn72@yahoo.com","01180 547708","","","","",NA
"Oda Rosenbaum","harvey.ankunding@yahoo.com","09618 282983","Oda  Rosenbaum","harvey.ankunding@yahoo.com","09618 282983","","","","",NA
"Justus Hayes","princess_dooley@yahoo.com","05683 538735","Justus  Hayes","princess_dooley@yahoo.com","05683 538735","","","","",NA
"River Crona","bethany.kuhic63@yahoo.com","01534 852557","River  Crona","bethany.kuhic63@yahoo.com","01534 852557","","","","",NA
"Yadira Howe","pedro_roob44@gmail.com","01664 007875","Yadira  Howe","pedro_roob44@gmail.com","01664 007875","","","","",NA
"Benjamin Heaney","keshaun.dietrich21@gmail.com","01385 983134","Benjamin  Heaney","keshaun.dietrich21@gmail.com","01385 983134","","","","",NA
"Darrion Fritsch MD","nayeli52@gmail.com","08605 380520","Darrion  Fritsch  M D","nayeli52@gmail.com","08605 380520","","","","",NA
"Joaquin Schinner II","jennings_bashirian39@hotmail.com","08007 418870","Joaquin  Schinner  I I","jennings_bashirian39@hotmail.com","08007 418870","","","","",NA
"Otho Schaden","abdullah12@gmail.com","05621 441730","Otho  Schaden","abdullah12@gmail.com","05621 441730","","","","",NA
"Randal Casper","darien.weissnat@hotmail.com","01173 735396","Randal  Casper","darien.weissnat@hotmail.com","01173 735396","","","","",NA
"Antone Gislason","libbie.kessler82@yahoo.com","01914 091100","Antone  Gislason","libbie.kessler82@yahoo.com","01914 091100","","","","",NA
"Otha Dicki","edyth_ferry34@hotmail.com","05533 889711","Otha  Dicki","edyth_ferry34@hotmail.com","05533 889711","","","","",NA
"Devin Murray III","fannie90@hotmail.com","03856 140492","Devin  Murray  I I I","fannie90@hotmail.com","03856 140492","","","","",NA
"Hyman Wehner","lindsay_hyatt@hotmail.com","05564 325811","Hyman  Wehner","lindsay_hyatt@hotmail.com","05564 325811","","","","",NA
"Ms. Alena Schmidt","chelsie.goodwin@hotmail.com","08810 762494","Ms.  Alena  Schmidt","chelsie.goodwin@hotmail.com","08810 762494","","","","",NA
"Mrs. Amy Runte","omari26@hotmail.com","03462 645494","Mrs.  Amy  Runte","omari26@hotmail.com","03462 645494","","","","",NA
"Prince Weber","nasir.schultz@yahoo.com","08004 617054","Prince  Weber","nasir.schultz@yahoo.com","08004 617054","","","","",NA
" Ike      Quigley ","octavia.sipes@hotmail.com","05668 360331","Ike  Quigley","octavia.sipes@hotmail.com","05668 360331","","","","",NA
"Caleb Rowe","london.kessler@gmail.com","02399 336170","Caleb  Rowe","london.kessler@gmail.com","02399 336170","","","","",NA
"Katheryn Howe","joannie_homenick34@yahoo.com","03464 544823","Katheryn  Howe","joannie_homenick34@yahoo.com","03464 544823","","","","",NA
"Lorine Romaguera","isabell23@hotmail.com","01915 658237","Lorine  Romaguera","isabell23@hotmail.com","01915 658237","","","","",NA
"Kallie Cormier","trisha_morar54@yahoo.com","05003 454120","Kallie  Cormier","trisha_morar54@yahoo.com","05003 454120","","","","",NA
"Cristina Flatley","sunny.schmidt@gmail.com","09114 942555","Cristina  Flatley","sunny.schmidt@gmail.com","09114 942555","","","","",NA
"Scotty Kautzer DVM","bernhard_turner43@yahoo.com","05621 356679","Scotty  Kautzer  D V M","bernhard_turner43@yahoo.com","05621 356679","","","","",NA
"Sylvia Leffler","edna_friesen86@gmail.com","01124 678061","Sylvia  Leffler","edna_friesen86@gmail.com","01124 678061","","","","",NA
"Christine Marquardt","erika.reilly62@yahoo.com","01127 635655","Christine  Marquardt","erika.reilly62@yahoo.com","01127 635655","","","","",NA
"Furman Corwin","antoinette_crooks@yahoo.com","05643 331237","Furman  Corwin","antoinette_crooks@yahoo.com","05643 331237","","","","",NA
"Clifton Volkman","jasmin56@hotmail.com","01279 811163","Clifton  Volkman","jasmin56@hotmail.com","01279 811163","","","","",NA
"Howard Christiansen","michale.casper46@yahoo.com","01412 596339","Howard  Christiansen","michale.casper46@yahoo.com","01412 596339","","","","",NA
"Hazel Mertz","king_waters@hotmail.com","01119 181023","Hazel  Mertz","king_waters@hotmail.com","01119 181023","","","","",NA
"Einar Denesik","jazmin69@yahoo.com","03624 159302","Einar  Denesik","jazmin69@yahoo.com","03624 159302","","","","",NA
"Clemmie Swaniawski","nick_blick@gmail.com","01447 205199","Clemmie  Swaniawski","nick_blick@gmail.com","01447 205199","","","","",NA
"Cara Bosco","jayson_johnston@yahoo.com","05562 648200","Cara  Bosco","jayson_johnston@yahoo.com","05562 648200","","","","",NA
"Miss Loy Harber","evie.wolf@yahoo.com","02408 658799","Miss  Loy  Harber","evie.wolf@yahoo.com","02408 658799","","","","",NA
"Rylan Reynolds","junius10@yahoo.com","01611 563742","Rylan  Reynolds","junius10@yahoo.com","01611 563742","","","","",NA
"Iliana Weissnat","kaley.bahringer@yahoo.com","03678 608974","Iliana  Weissnat","kaley.bahringer@yahoo.com","03678 608974","","","","",NA
"Mr. Dariana Larkin","andy.halvorson@hotmail.com","05596 863111","Mr.  Dariana  Larkin","andy.halvorson@hotmail.com","05596 863111","","","","",NA
"Deangelo Kessler","kayley86@hotmail.com","02099 122846","Deangelo  Kessler","kayley86@hotmail.com","02099 122846","","","","",NA
"Mr. Micheal Conroy","lincoln.zemlak57@hotmail.com","09968 762967","Mr.  Micheal  Conroy","lincoln.zemlak57@hotmail.com","09968 762967","","","","",NA
"Adrain Fay","elizabeth_paucek@gmail.com","01380 246092","Adrain  Fay","elizabeth_paucek@gmail.com","01380 246092","","","","",NA
"Delmer Champlin IV","hellen_blanda64@hotmail.com","08007 473450","Delmer  Champlin  I V","hellen_blanda64@hotmail.com","08007 473450","","","","",NA
"Ashtyn Lind","luella68@hotmail.com","05631 134857","Ashtyn  Lind","luella68@hotmail.com","05631 134857","","","","",NA
"Rylee Cartwright","gerda.steuber@gmail.com","02042 791724","Rylee  Cartwright","gerda.steuber@gmail.com","02042 791724","","","","",NA
"Kamryn Farrell","joyce.hickle15@gmail.com","01047 917836","Kamryn  Farrell","joyce.hickle15@gmail.com","01047 917836","","","","",NA
"Dereck Gislason","isidro.bernier32@yahoo.com","08008 892220","Dereck  Gislason","isidro.bernier32@yahoo.com","08008 892220","","","","",NA
"Mercedes Moore","keyon8@yahoo.com","01515 985272","Mercedes  Moore","keyon8@yahoo.com","01515 985272","","","","",NA
"Kaitlyn Schmitt","emmy47@yahoo.com","08003 068910","Kaitlyn  Schmitt","emmy47@yahoo.com","08003 068910","","","","",NA
"Laura Hilll","garnett_bauch@hotmail.com","01476 577320","Laura  Hilll","garnett_bauch@hotmail.com","01476 577320","","","","",NA
"Derek Collins","summer.kuvalis29@yahoo.com","01510 271693","Derek  Collins","summer.kuvalis29@yahoo.com","01510 271693","","","","",NA
"Deven Daniel","bonnie32@hotmail.com","01557 387258","Deven  Daniel","bonnie32@hotmail.com","01557 387258","","","","",NA
"Lavada Terry","emmett.legros@yahoo.com","02834 670651","Lavada  Terry","emmett.legros@yahoo.com","02834 670651","","","","",NA
"Armani Stamm","jacky.shields27@hotmail.com","01972 203790","Armani  Stamm","jacky.shields27@hotmail.com","01972 203790","","","","",NA
"Alexandre Orn","elissa45@gmail.com","03900 949836","Alexandre  Orn","elissa45@gmail.com","03900 949836","","","","",NA
"Nellie DuBuque","roscoe.friesen@yahoo.com","01133 102653","Nellie  Du Buque","roscoe.friesen@yahoo.com","01133 102653","","","","",NA
"Kaelyn Wisozk","kavon_donnelly@gmail.com","05592 147618","Kaelyn  Wisozk","kavon_donnelly@gmail.com","05592 147618","","","","",NA
"Alayna Kertzmann","beryl78@hotmail.com","05597 487249","Alayna  Kertzmann","beryl78@hotmail.com","05597 487249","","","","",NA
"Francesco Labadie","earl_pfeffer@yahoo.com","08004 140240","Francesco  Labadie","earl_pfeffer@yahoo.com","08004 140240","","","","",NA
"Trudie Feest","caroline4@gmail.com","09697 079902","Trudie  Feest","caroline4@gmail.com","09697 079902","","","","",NA
"Milton Cummerata MD","devante.huel@yahoo.com","02859 165798","Milton  Cummerata  M D","devante.huel@yahoo.com","02859 165798","","","","",NA
"Kiarra White","bart60@hotmail.com","01431 211989","Kiarra  White","bart60@hotmail.com","01431 211989","","","","",NA
"Vella Franecki","alvis.king89@yahoo.com","09840 034270","Vella  Franecki","alvis.king89@yahoo.com","09840 034270","","","","",NA
"Kamryn Nicolas","marcelina6@yahoo.com","05008 927570","Kamryn  Nicolas","marcelina6@yahoo.com","05008 927570","","","","",NA
"Viviane Abshire","garrison.white27@gmail.com","08004 736650","Viviane  Abshire","garrison.white27@gmail.com","08004 736650","","","","",NA
"Una Kilback","filomena_waelchi@gmail.com","05694 272465","Una  Kilback","filomena_waelchi@gmail.com","05694 272465","","","","",NA
"Nona Nicolas","orie.kling@hotmail.com","05660 043297","Nona  Nicolas","orie.kling@hotmail.com","05660 043297","","","","",NA
"Sienna Steuber","moriah_dickinson42@yahoo.com","09632 118076","Sienna  Steuber","moriah_dickinson42@yahoo.com","09632 118076","","","","",NA
"Mrs. Grayce Cummerata","rylee90@gmail.com","05590 565461","Mrs.  Grayce  Cummerata","rylee90@gmail.com","05590 565461","","","","",NA
"Garret Schimmel","vivien_doyle11@hotmail.com","01511 550997","Garret  Schimmel","vivien_doyle11@hotmail.com","01511 550997","","","","",NA
"Tabitha O'Conner","erwin_koepp@yahoo.com","02564 348174","Tabitha  O' Conner","erwin_koepp@yahoo.com","02564 348174","","","","",NA
"Rubye Weimann","dallin.littel64@yahoo.com","05008 471430","Rubye  Weimann","dallin.littel64@yahoo.com","05008 471430","","","","",NA
"Elouise Kuhic","helen24@gmail.com","01519 594301","Elouise  Kuhic","helen24@gmail.com","01519 594301","","","","",NA
"Mr. Noemie Moore","jana39@gmail.com","05561 823885","Mr.  Noemie  Moore","jana39@gmail.com","05561 823885","","","","",NA
"Felicita McGlynn","ole.rau39@gmail.com","08007 555911","Felicita  Mc Glynn","ole.rau39@gmail.com","08007 555911","","","","",NA
"Edyth Fadel","lew32@yahoo.com","01189 277630","Edyth  Fadel","lew32@yahoo.com","01189 277630","","","","",NA
"Anissa Beier","hobart_moore@gmail.com","08003 946680","Anissa  Beier","hobart_moore@gmail.com","08003 946680","","","","",NA
"Lorenzo Schowalter","alf11@gmail.com","01122 126629","Lorenzo  Schowalter","alf11@gmail.com","01122 126629","","","","",NA
"Reagan Towne MD","estel1@yahoo.com","01480 290917","Reagan  Towne  M D","estel1@yahoo.com","01480 290917","","","","",NA
"Roscoe Rutherford","verlie.toy@hotmail.com","01136 658549","Roscoe  Rutherford","verlie.toy@hotmail.com","01136 658549","","","","",NA
"Dr. Moses Larkin","maiya.keebler6@yahoo.com","08694 924742","Dr.  Moses  Larkin","maiya.keebler6@yahoo.com","08694 924742","","","","",NA
"Leila Green","kristin.bruen32@gmail.com","01039 776956","Leila  Green","kristin.bruen32@gmail.com","01039 776956","","","","",NA
"Kathleen Herzog","collin.bosco68@gmail.com","01697 783550","Kathleen  Herzog","collin.bosco68@gmail.com","01697 783550","","","","",NA
"Orland Jones","karianne29@hotmail.com","01151 575844","Orland  Jones","karianne29@hotmail.com","01151 575844","","","","",NA
"Kaylie Mertz","keith.wolff98@hotmail.com","05512 807284","Kaylie  Mertz","keith.wolff98@hotmail.com","05512 807284","","","","",NA
"Bryce Ondricka","brandyn86@hotmail.com","01011 437393","Bryce  Ondricka","brandyn86@hotmail.com","01011 437393","","","","",NA
"Ms. Emery Klein","pamela.miller33@yahoo.com","01697 782470","Ms.  Emery  Klein","pamela.miller33@yahoo.com","01697 782470","","","","",NA
"Mr. Damion Bednar","rowena_bednar@hotmail.com","08009 286856","Mr.  Damion  Bednar","rowena_bednar@hotmail.com","08009 286856","","","","",NA
"Ansley Boehm","raul.kreiger@gmail.com","08182 989638","Ansley  Boehm","raul.kreiger@gmail.com","08182 989638","","","","",NA
"Andreanne Shields","tiara_kozey43@yahoo.com","01614 600950","Andreanne  Shields","tiara_kozey43@yahoo.com","01614 600950","","","","",NA
"Carolanne Schiller","zechariah.brakus@yahoo.com","02778 764607","Carolanne  Schiller","zechariah.brakus@yahoo.com","02778 764607","","","","",NA
"Maeve Kunze","tara68@hotmail.com","01697 773940","Maeve  Kunze","tara68@hotmail.com","01697 773940","","","","",NA
"Fiona Dach","delia58@hotmail.com","08722 117476","Fiona  Dach","delia58@hotmail.com","08722 117476","","","","",NA
"Stefanie Walter","anita.runolfsdottir42@gmail.com","08734 368637","Stefanie  Walter","anita.runolfsdottir42@gmail.com","08734 368637","","","","",NA
"Sebastian Pfannerstill","meredith87@gmail.com","01321 896465","Sebastian  Pfannerstill","meredith87@gmail.com","01321 896465","","","","",NA
"Geovany Beier","ronny.kunze@gmail.com","01213 268457","Geovany  Beier","ronny.kunze@gmail.com","01213 268457","","","","",NA
"Ms. Scottie Bednar","murphy_blick95@gmail.com","01710 524082","Ms.  Scottie  Bednar","murphy_blick95@gmail.com","01710 524082","","","","",NA
"Myrna Rodriguez","rita67@hotmail.com","01032 119465","Myrna  Rodriguez","rita67@hotmail.com","01032 119465","","","","",NA
"Maxine Schmeler","arlie94@yahoo.com","08689 389849","Maxine  Schmeler","arlie94@yahoo.com","08689 389849","","","","",NA
"Mr. Katelyn Emard","teresa94@hotmail.com","01876 939814","Mr.  Katelyn  Emard","teresa94@hotmail.com","01876 939814","","","","",NA
"Damian Welch","marielle_heller@hotmail.com","01572 609757","Damian  Welch","marielle_heller@hotmail.com","01572 609757","","","","",NA
"Ivah Mosciski","joesph.schroeder@hotmail.com","03837 194081","Ivah  Mosciski","joesph.schroeder@hotmail.com","03837 194081","","","","",NA
"Faustino Rutherford","daryl.witting@yahoo.com","01692 005700","Faustino  Rutherford","daryl.witting@yahoo.com","01692 005700","","","","",NA
"Trevion Jerde Sr.","ethelyn64@gmail.com","01073 077956","Trevion  Jerde  Sr.","ethelyn64@gmail.com","01073 077956","","","","",NA
"Larue Keeling","tatum_abernathy@hotmail.com","01556 184433","Larue  Keeling","tatum_abernathy@hotmail.com","01556 184433","","","","",NA
"Norwood Champlin","tessie6@gmail.com","08982 208853","Norwood  Champlin","tessie6@gmail.com","08982 208853","","","","",NA
"Myrtle Nikolaus","jermain_howell@hotmail.com","09001 760129","Myrtle  Nikolaus","jermain_howell@hotmail.com","09001 760129","","","","",NA
"Eldon Reinger","clark46@yahoo.com","05691 376387","Eldon  Reinger","clark46@yahoo.com","05691 376387","","","","",NA
"Casimer Bruen","earl.ankunding@hotmail.com","08004 516270","Casimer  Bruen","earl.ankunding@hotmail.com","08004 516270","","","","",NA
"Ms. Winston Wehner","karina26@hotmail.com","01697 739330","Ms.  Winston  Wehner","karina26@hotmail.com","01697 739330","","","","",NA
"Jamaal Franecki","vida_wintheiser48@yahoo.com","02955 807613","Jamaal  Franecki","vida_wintheiser48@yahoo.com","02955 807613","","","","",NA
"Kelton Brakus","gerald.frami@yahoo.com","01917 793050","Kelton  Brakus","gerald.frami@yahoo.com","01917 793050","","","","",NA
"Fern Kerluke","gaetano73@yahoo.com","01888 886690","Fern  Kerluke","gaetano73@yahoo.com","01888 886690","","","","",NA
"Travis Cummerata","a@b.c","01152 990755","Travis  Cummerata","a@b.c","01152 990755","[ ""A1"", ""A3"" ]","","TRUE","",NA
"Minerva Renner","destinee_collins64@yahoo.com","01960 798203","Minerva  Renner","destinee_collins64@yahoo.com","01960 798203","","","","",NA
"Domingo Roob","robbie.osinski25@hotmail.com","08006 704800","Domingo  Roob","robbie.osinski25@hotmail.com","08006 704800","","","","",NA
"Ursula Vandervort","marc_ryan@yahoo.com","02061 534697","Ursula  Vandervort","marc_ryan@yahoo.com","02061 534697","","","","",NA
"Keegan Doyle","giovanna_murphy@hotmail.com","05572 272009","Keegan  Doyle","giovanna_murphy@hotmail.com","05572 272009","","","","",NA
"Caesar Kulas","jude22@yahoo.com","01918 731086","Caesar  Kulas","jude22@yahoo.com","01918 731086","","","","",NA
"Clifton Parisian","sylvan.brekke@gmail.com","09466 436830","Clifton  Parisian","sylvan.brekke@gmail.com","09466 436830","","","","",NA
"Mabelle O'Connell","glennie.altenwerth97@hotmail.com","01413 742110","Mabelle  O' Connell","glennie.altenwerth97@hotmail.com","01413 742110","","","","",NA
"Lane Graham DVM","jana.ankunding@gmail.com","08065 427227","Lane  Graham  D V M","jana.ankunding@gmail.com","08065 427227","","","","",NA
"Tania Bosco","valentin.hackett62@yahoo.com","05002 057710","Tania  Bosco","valentin.hackett62@yahoo.com","05002 057710","","","","",NA
"Ericka Ritchie","melody_bosco30@hotmail.com","08001 306260","Ericka  Ritchie","melody_bosco30@hotmail.com","08001 306260","","","","",NA
"Jaquelin Kling","corene_gusikowski82@gmail.com","09423 218900","Jaquelin  Kling","corene_gusikowski82@gmail.com","09423 218900","","","","",NA
"Miss Gonzalo Schmeler","yvonne.streich@gmail.com","05543 220740","Miss  Gonzalo  Schmeler","yvonne.streich@gmail.com","05543 220740","","","","",NA
"Camylle Friesen","gilberto2@gmail.com","01463 122357","Camylle  Friesen","gilberto2@gmail.com","01463 122357","","","","",NA
"Mohamed Beatty","anibal.walsh0@gmail.com","05574 709800","Mohamed  Beatty","anibal.walsh0@gmail.com","05574 709800","","","","",NA
"Roxane Abernathy","tyrese_swaniawski63@gmail.com","05616 270997","Roxane  Abernathy","tyrese_swaniawski63@gmail.com","05616 270997","","","","",NA
"Euna Zemlak","devyn74@hotmail.com","08480 035440","Euna  Zemlak","devyn74@hotmail.com","08480 035440","","","","",NA
"Miss Roselyn Frami","electa11@yahoo.com","08770 171848","Miss  Roselyn  Frami","electa11@yahoo.com","08770 171848","","","","",NA
"Jerrod Prosacco","stephan.reynolds44@yahoo.com","01728 712920","Jerrod  Prosacco","stephan.reynolds44@yahoo.com","01728 712920","","","","",NA
"Marlon Willms","damian50@yahoo.com","05534 575047","Marlon  Willms","damian50@yahoo.com","05534 575047","","","","",NA
"Mrs. Rashawn Jacobson","jermaine1@yahoo.com","03504 048181","Mrs.  Rashawn  Jacobson","jermaine1@yahoo.com","03504 048181","","","","",NA
"Electa Schulist","favian.olson@hotmail.com","02873 869337","Electa  Schulist","favian.olson@hotmail.com","02873 869337","","","","",NA
"Sterling Maggio","kiley.lemke@hotmail.com","02998 130958","Sterling  Maggio","kiley.lemke@hotmail.com","02998 130958","","","","",NA
"Xander Anderson","ferne_maggio@hotmail.com","01839 564362","Xander  Anderson","ferne_maggio@hotmail.com","01839 564362","","","","",NA
"Maximilian Howe","susan_krajcik@gmail.com","08005 300387","Maximilian  Howe","susan_krajcik@gmail.com","08005 300387","","","","",NA
"Vita Lemke","tremaine39@hotmail.com","08004 256720","Vita  Lemke","tremaine39@hotmail.com","08004 256720","","","","",NA
"Roxane Langworth","ewald37@gmail.com","08000 801790","Roxane  Langworth","ewald37@gmail.com","08000 801790","","","","",NA
"Eldridge D'Amore","kaitlyn43@hotmail.com","08000 027985","Eldridge  D' Amore","kaitlyn43@hotmail.com","08000 027985","","","","",NA
"Ciara Schamberger","robb.bruen16@yahoo.com","05009 329680","Ciara  Schamberger","robb.bruen16@yahoo.com","05009 329680","","","","",NA
"Malcolm Nicolas","joy.halvorson@gmail.com","05007 085680","Malcolm  Nicolas","joy.halvorson@gmail.com","05007 085680","","","","",NA
"Mr. Willy Emmerich","amely_stanton@yahoo.com","08648 795973","Mr.  Willy  Emmerich","amely_stanton@yahoo.com","08648 795973","","","","",NA
"Aniyah Hermiston","urban_green30@gmail.com","01548 810110","Aniyah  Hermiston","urban_green30@gmail.com","01548 810110","","","","",NA
"Pearl Heidenreich","lindsey.lockman@yahoo.com","09632 919916","Pearl  Heidenreich","lindsey.lockman@yahoo.com","09632 919916","","","","",NA
"Savannah Johnston","maxwell_huel@hotmail.com","01697 737860","Savannah  Johnston","maxwell_huel@hotmail.com","01697 737860","","","","",NA
"Darrell Wilkinson","luella_bogan99@gmail.com","08009 805940","Darrell  Wilkinson","luella_bogan99@gmail.com","08009 805940","","","","",NA
"Ben Williamson","dylan93@gmail.com","08007 614311","Ben  Williamson","dylan93@gmail.com","08007 614311","","","","",NA
"Dejon Ortiz","emmitt84@hotmail.com","03672 382325","Dejon  Ortiz","emmitt84@hotmail.com","03672 382325","","","","",NA
"Lemuel Paucek","valentine.yundt7@gmail.com","01140 297010","Lemuel  Paucek","valentine.yundt7@gmail.com","01140 297010","","","","",NA
"Cleora Bartell","triston.mcglynn80@hotmail.com","011 123 752 98","Cleora  Bartell","triston.mcglynn80@hotmail.com","01112 375298","[ ""C2"" ]","","","",NA
"Liam Hand","mozelle_shanahan52@yahoo.com","05644 418257","Liam  Hand","mozelle_shanahan52@yahoo.com","05644 418257","","","","",NA
"Marielle Blanda","mckenna92@gmail.com","01135 594432","Marielle  Blanda","mckenna92@gmail.com","01135 594432","","","","",NA
"Gianni Upton","dakota_haley@hotmail.com","01118 645142","Gianni  Upton","dakota_haley@hotmail.com","01118 645142","","","","",NA
"Ellen Fay","cale.klein@hotmail.com","08911 133292","Ellen  Fay","cale.klein@hotmail.com","08911 133292","","","","",NA
"Ola Crooks","imogene_hane@hotmail.com","08004 159610","Ola  Crooks","imogene_hane@hotmail.com","08004 159610","","","","",NA
"Skye Swift","candice_mcdermott@hotmail.com","02821 466532","Skye  Swift","candice_mcdermott@hotmail.com","02821 466532","","","","",NA
"Kirstin Crooks","kelley18@hotmail.com","08001 431040","Kirstin  Crooks","kelley18@hotmail.com","08001 431040","","","","",NA
"Myrl Bailey","gregorio.klein@yahoo.com","01036 075400","Myrl  Bailey","gregorio.klein@yahoo.com","01036 075400","","","","",NA
"Electa Kautzer","gudrun4@hotmail.com","01891 488910","Electa  Kautzer","gudrun4@hotmail.com","01891 488910","","","","",NA
"Ray Howe","shaniya.kiehn57@hotmail.com","01173 175996","Ray  Howe","shaniya.kiehn57@hotmail.com","01173 175996","","","","",NA
"Gail Mills","damion77@gmail.com","03389 160564","Gail  Mills","damion77@gmail.com","03389 160564","","","","",NA
"Henriette Batz Jr.","jess24@gmail.com","05595 558307","Henriette  Batz  Jr.","jess24@gmail.com","05595 558307","","","","",NA
"Brandyn Bernier Sr.","matteo.bashirian4@hotmail.com","08007 880656","Brandyn  Bernier  Sr.","matteo.bashirian4@hotmail.com","08007 880656","","","","",NA
"Kamille Yost","juliet.schneider47@gmail.com","01122 231865","Kamille  Yost","juliet.schneider47@gmail.com","01122 231865","","","","",NA
"Duncan Mayert","abelardo_nolan51@yahoo.com","01151 052530","Duncan  Mayert","abelardo_nolan51@yahoo.com","01151 052530","","","","",NA
"Stewart Kilback","everett_ohara73@yahoo.com","01697 740660","Stewart  Kilback","everett_ohara73@yahoo.com","01697 740660","","","","",NA
"Carlie Ruecker","gina.frami77@yahoo.com","02949 627819","Carlie  Ruecker","gina.frami77@yahoo.com","02949 627819","","","","",NA
"Carlos Walker","jake9@yahoo.com","08821 547465","Carlos  Walker","jake9@yahoo.com","08821 547465","","","","",NA
"Mrs. Bailey Cole","cathryn_gutkowski75@gmail.com","05587 204027","Mrs.  Bailey  Cole","cathryn_gutkowski75@gmail.com","05587 204027","","","","",NA
"Eugene Marks","jacques59@yahoo.com","02489 153507","Eugene  Marks","jacques59@yahoo.com","02489 153507","","","","",NA
"Rick Hermiston MD","eliza34@yahoo.com","08002 144862","Rick  Hermiston  M D","eliza34@yahoo.com","08002 144862","","","","",NA
"Kaylah Ferry","seth.douglas78@yahoo.com","05578 509406","Kaylah  Ferry","seth.douglas78@yahoo.com","05578 509406","","","","",NA
"Ophelia Ondricka","raegan_hintz@yahoo.com","01697 760370","Ophelia  Ondricka","raegan_hintz@yahoo.com","01697 760370","","","","",NA
"Melody Schuster Sr.","kendra33@hotmail.com","05002 885740","Melody  Schuster  Sr.","kendra33@hotmail.com","05002 885740","","","","",NA
"Danial Beier","kristina.schaden22@gmail.com","05651 357316","Danial  Beier","kristina.schaden22@gmail.com","05651 357316","","","","",NA
"Shyann Ebert","lottie9@hotmail.com","03496 954435","Shyann  Ebert","lottie9@hotmail.com","03496 954435","","","","",NA
"Torrance Jacobson","emory_roberts14@yahoo.com","01415 033290","Torrance  Jacobson","emory_roberts14@yahoo.com","01415 033290","","","","",NA
"Caleb Wiza","arnulfo.langworth@hotmail.com","01628 015351","Caleb  Wiza","arnulfo.langworth@hotmail.com","01628 015351","","","","",NA
"Bryce Blanda","elfrieda.cole@gmail.com","01551 517030","Bryce  Blanda","elfrieda.cole@gmail.com","01551 517030","","","","",NA
"Norene Kerluke DVM","brant.kerluke1@hotmail.com","08714 301070","Norene  Kerluke  D V M","brant.kerluke1@hotmail.com","08714 301070","","","","",NA
"Elias Hickle","alba_adams51@hotmail.com","01387 545324","Elias  Hickle","alba_adams51@hotmail.com","01387 545324","","","","",NA
"Amina Wiegand","darrion_lehner39@hotmail.com","08007 373563","Amina  Wiegand","darrion_lehner39@hotmail.com","08007 373563","","","","",NA
"Genoveva Mohr","ahmed_jones49@yahoo.com","08383 761012","Genoveva  Mohr","ahmed_jones49@yahoo.com","08383 761012","","","","",NA
"Isidro Wilderman","ignatius.anderson@yahoo.com","02648 297354","Isidro  Wilderman","ignatius.anderson@yahoo.com","02648 297354","","","","",NA
"Miss Katelin Anderson","herta86@hotmail.com","03564 894172","Miss  Katelin  Anderson","herta86@hotmail.com","03564 894172","","","","",NA
"Jerald Donnelly","dax.sipes40@hotmail.com","01263 919071","Jerald  Donnelly","dax.sipes40@hotmail.com","01263 919071","","","","",NA
"Rickey Sanford","christiana.berge@yahoo.com","01825 008470","Rickey  Sanford","christiana.berge@yahoo.com","01825 008470","","","","",NA
"Dayna Johnson","miles_rogahn16@yahoo.com","08004 395573","Dayna  Johnson","miles_rogahn16@yahoo.com","08004 395573","","","","",NA
"Rogers Labadie","ressie15@yahoo.com","09571 126437","Rogers  Labadie","ressie15@yahoo.com","09571 126437","","","","",NA
"Darrel Kuhlman","florine_eichmann@gmail.com","01782 661065","Darrel  Kuhlman","florine_eichmann@gmail.com","01782 661065","","","","",NA
"Otha Rohan","mohamed.buckridge87@gmail.com","09163 370895","Otha  Rohan","mohamed.buckridge87@gmail.com","09163 370895","","","","",NA
"Leonie Kautzer","lexie16@yahoo.com","09818 047567","Leonie  Kautzer","lexie16@yahoo.com","09818 047567","","","","",NA
"Bryon Torp","kareem48@hotmail.com","05560 610710","Bryon  Torp","kareem48@hotmail.com","05560 610710","","","","",NA
"Orion Jerde IV","myrtis.grady84@yahoo.com","08005 908760","Orion  Jerde  I V","myrtis.grady84@yahoo.com","08005 908760","","","","",NA
"Mr. Iliana Crona","martin.purdy67@yahoo.com","09121 434680","Mr.  Iliana  Crona","martin.purdy67@yahoo.com","09121 434680","","","","",NA
"Bridgette Balistreri","terrance.smith@gmail.com","01697 725870","Bridgette  Balistreri","terrance.smith@gmail.com","01697 725870","","","","",NA
"Lydia Feil MD","timmy.fahey12@yahoo.com","01697 736590","Lydia  Feil  M D","timmy.fahey12@yahoo.com","01697 736590","","","","",NA
"Jerad Kihn Jr.","shakira.cummings99@yahoo.com","08111 746181","Jerad  Kihn  Jr.","shakira.cummings99@yahoo.com","08111 746181","","","","",NA
"Esta McClure","andrew98@yahoo.com","09229 504965","Esta  Mc Clure","andrew98@yahoo.com","09229 504965","","","","",NA
"Salvatore Kessler","delphia.zieme71@gmail.com","01186 344861","Salvatore  Kessler","delphia.zieme71@gmail.com","01186 344861","","","","",NA
"Okey Simonis","andreane29@gmail.com","01697 778610","Okey  Simonis","andreane29@gmail.com","01697 778610","","","","",NA
"Dr. Letitia Bradtke","eugene_herman23@yahoo.com","01706 173495","Dr.  Letitia  Bradtke","eugene_herman23@yahoo.com","01706 173495","","","","",NA
"Regan Robel","daryl.harris@hotmail.com","01616 313092","Regan  Robel","daryl.harris@hotmail.com","01616 313092","","","","",NA
"Jameson Stark","matilde_cummings76@yahoo.com","03112 523719","Jameson  Stark","matilde_cummings76@yahoo.com","03112 523719","","","","",NA
"Rahul Dickinson","keeley.wiegand95@gmail.com","08009 040290","Rahul  Dickinson","keeley.wiegand95@gmail.com","08009 040290","","","","",NA
"Roy Bernier","andre_lemke@hotmail.com","01428 441576","Roy  Bernier","andre_lemke@hotmail.com","01428 441576","","","","",NA
"Gaetano Fritsch","jarvis48@gmail.com","02690 646422","Gaetano  Fritsch","jarvis48@gmail.com","02690 646422","","","","",NA
"Johnathan Wuckert","christine21@hotmail.com","08311 027222","Johnathan  Wuckert","christine21@hotmail.com","08311 027222","","","","",NA
"Daren Schultz","marguerite_gorczany64@hotmail.com","01195 329937","Daren  Schultz","marguerite_gorczany64@hotmail.com","01195 329937","","","","",NA
"Minerva Hermann","judd60@gmail.com","05626 809784","Minerva  Hermann","judd60@gmail.com","05626 809784","","","","",NA
"Elaina Klocko","eleazar_schuppe@gmail.com","09702 355083","Elaina  Klocko","eleazar_schuppe@gmail.com","09702 355083","","","","",NA
"Trey Hayes","alvis.lakin@hotmail.com","05535 140844","Trey  Hayes","alvis.lakin@hotmail.com","05535 140844","","","","",NA
"Hans Hessel","erica_larkin@hotmail.com","08001 829650","Hans  Hessel","erica_larkin@hotmail.com","08001 829650","","","","",NA
"Nico McDermott","lue_thompson@hotmail.com","08006 283061","Nico  Mc Dermott","lue_thompson@hotmail.com","08006 283061","","","","",NA
"Dariana Turcotte","modesto.cummings@yahoo.com","08004 633972","Dariana  Turcotte","modesto.cummings@yahoo.com","08004 633972","","","","",NA
"Angelica O'Kon","shemar79@hotmail.com","01119 141469","Angelica  O' Kon","shemar79@hotmail.com","01119 141469","","","","",NA
"Clementina Renner","rey.altenwerth78@hotmail.com","01576 261020","Clementina  Renner","rey.altenwerth78@hotmail.com","01576 261020","","","","",NA
"Astrid Turcotte","esmeralda16@yahoo.com","05660 143566","Astrid  Turcotte","esmeralda16@yahoo.com","05660 143566","","","","",NA
"Gaetano Grady","brendan_swaniawski74@hotmail.com","03732 193994","Gaetano  Grady","brendan_swaniawski74@hotmail.com","03732 193994","","","","",NA
"Coleman Rowe","deja_pfeffer@yahoo.com","01697 790040","Coleman  Rowe","deja_pfeffer@yahoo.com","01697 790040","","","","",NA
"Abbigail Renner","jaden.morar@gmail.com","01018 381823","Abbigail  Renner","jaden.morar@gmail.com","01018 381823","","","","",NA
"Mabel Pfeffer","gertrude61@yahoo.com","01416 506522","Mabel  Pfeffer","gertrude61@yahoo.com","01416 506522","","","","",NA
"Maymie Wisoky","kade21@yahoo.com","05699 132292","Maymie  Wisoky","kade21@yahoo.com","05699 132292","","","","",NA
"Miss Deshaun Shields","rusty_willms53@hotmail.com","09764 056427","Miss  Deshaun  Shields","rusty_willms53@hotmail.com","09764 056427","","","","",NA
"Felipe Jones","jaylan.bayer@gmail.com","08003 428415","Felipe  Jones","jaylan.bayer@gmail.com","08003 428415","","","","",NA
"Cloyd Heller","caterina56@gmail.com","08009 220540","Cloyd  Heller","caterina56@gmail.com","08009 220540","","","","",NA
"Candelario Hauck","rickey77@yahoo.com","08098 519955","Candelario  Hauck","rickey77@yahoo.com","08098 519955","","","","",NA
"Houston Bahringer","minerva.gibson90@gmail.com","05006 362750","Houston  Bahringer","minerva.gibson90@gmail.com","05006 362750","","","","",NA
"Andre Ullrich","kendra_shields@hotmail.com","01192 986090","Andre  Ullrich","kendra_shields@hotmail.com","01192 986090","","","","",NA
"Mr. Bridget Rogahn","alberto_considine@hotmail.com","01548 990945","Mr.  Bridget  Rogahn","alberto_considine@hotmail.com","01548 990945","","","","",NA
"Armani Mosciski Jr.","verlie.jacobi@gmail.com","09719 842531","Armani  Mosciski  Jr.","verlie.jacobi@gmail.com","09719 842531","","","","",NA
"Kelsi Grant MD","herman.hansen@hotmail.com","05005 442800","Kelsi  Grant  M D","herman.hansen@hotmail.com","05005 442800","","","","",NA
"Albina Smitham","penelope.hirthe74@hotmail.com","09542 045923","Albina  Smitham","penelope.hirthe74@hotmail.com","09542 045923","","","","",NA
"Caesar Wuckert","leanna_mills@gmail.com","02889 067896","Caesar  Wuckert","leanna_mills@gmail.com","02889 067896","","","","",NA
"Milton Williamson","alisa_lowe35@yahoo.com","01697 768990","Milton  Williamson","alisa_lowe35@yahoo.com","01697 768990","","","","",NA
"Emilia Mraz","ephraim.waelchi@gmail.com","09434 548436","Emilia  Mraz","ephraim.waelchi@gmail.com","09434 548436","","","","",NA
"Easton Stracke","carey.hartmann@hotmail.com","08008 264148","Easton  Stracke","carey.hartmann@hotmail.com","08008 264148","","","","",NA
"Luisa Heidenreich","turner_glover@yahoo.com","08723 715653","Luisa  Heidenreich","turner_glover@yahoo.com","08723 715653","","","","",NA
"Hobart Emmerich","favian.kunze66@hotmail.com","08006 349950","Hobart  Emmerich","favian.kunze66@hotmail.com","08006 349950","","","","",NA
"Pablo Hilll MD","oren.ebert@yahoo.com","09320 472170","Pablo  Hilll  M D","oren.ebert@yahoo.com","09320 472170","","","","",NA
"Uriel Hodkiewicz","ethel.kovacek1@yahoo.com","08004 381960","Uriel  Hodkiewicz","ethel.kovacek1@yahoo.com","08004 381960","","","","",NA
"Alize Ullrich","freddie52@gmail.com","01190 309217","Alize  Ullrich","freddie52@gmail.com","01190 309217","","","","",NA
"Oma Witting","imelda_gerhold@gmail.com","08002 395282","Oma  Witting","imelda_gerhold@gmail.com","08002 395282","","","","",NA
"Ms. Eldon Ward","major.waelchi@yahoo.com","08002 948960","Ms.  Eldon  Ward","major.waelchi@yahoo.com","08002 948960","","","","",NA
"Delpha McKenzie","lucie_mills@gmail.com","09947 096454","Delpha  Mc Kenzie","lucie_mills@gmail.com","09947 096454","","","","",NA
"Alvina Emmerich","earl_lebsack@gmail.com","09621 946304","Alvina  Emmerich","earl_lebsack@gmail.com","09621 946304","","","","",NA
"Ignacio Ritchie","amparo41@yahoo.com","03664 920077","Ignacio  Ritchie","amparo41@yahoo.com","03664 920077","","","","",NA
"Larue Brakus","jesus.weissnat98@hotmail.com","08000 128160","Larue  Brakus","jesus.weissnat98@hotmail.com","08000 128160","","","","",NA
"Abbigail Witting","vince_bosco74@yahoo.com","01745 131530","Abbigail  Witting","vince_bosco74@yahoo.com","01745 131530","","","","",NA
"Melody Schumm","arnoldo82@yahoo.com","08005 068166","Melody  Schumm","arnoldo82@yahoo.com","08005 068166","","","","",NA
"Adrain Herzog","emiliano5@gmail.com","05643 294556","Adrain  Herzog","emiliano5@gmail.com","05643 294556","","","","",NA
"Davion Erdman","winifred_stamm@gmail.com","09903 117856","Davion  Erdman","winifred_stamm@gmail.com","09903 117856","","","","",NA
"Ronny Dibbert","darwin.leannon@yahoo.com","09391 660598","Ronny  Dibbert","darwin.leannon@yahoo.com","09391 660598","","","","",NA
"Leonardo Mayert","emmitt.stoltenberg27@yahoo.com","05630 947238","Leonardo  Mayert","emmitt.stoltenberg27@yahoo.com","05630 947238","","","","",NA
"Krista Beer","matilde_lynch@yahoo.com","01706 883550","Krista  Beer","matilde_lynch@yahoo.com","01706 883550","","","","",NA
"Polly Mertz","alec.rau@yahoo.com","02308 825401","Polly  Mertz","alec.rau@yahoo.com","02308 825401","","","","",NA
"Jaylon Dach","elias27@hotmail.com","01979 352673","Jaylon  Dach","elias27@hotmail.com","01979 352673","","","","",NA
"Queenie Wiza","jaeden83@yahoo.com","05501 258541","Queenie  Wiza","jaeden83@yahoo.com","05501 258541","","","","",NA
"Lonzo Terry","ova_keebler24@yahoo.com","08007 598800","Lonzo  Terry","ova_keebler24@yahoo.com","08007 598800","","","","",NA
"Joshua Simonis","esteban97@yahoo.com","01343 293838","Joshua  Simonis","esteban97@yahoo.com","01343 293838","","","","",NA
"Ocie Murphy","sandra.greenholt21@gmail.com","08003 935890","Ocie  Murphy","sandra.greenholt21@gmail.com","08003 935890","","","","",NA
"Harold Abshire","felipa_wehner@yahoo.com","01315 591738","Harold  Abshire","felipa_wehner@yahoo.com","01315 591738","","","","",NA
"Miss D'angelo Gottlieb","melba46@yahoo.com","01697 729120","Miss  D'angelo  Gottlieb","melba46@yahoo.com","01697 729120","","","","",NA
"Hilda Wehner","jadon75@gmail.com","08001 367465","Hilda  Wehner","jadon75@gmail.com","08001 367465","","","","",NA
"Nelda Schulist","hayley_bailey@hotmail.com","08008 960853","Nelda  Schulist","hayley_bailey@hotmail.com","08008 960853","","","","",NA
"Kamille Pouros","hosea41@yahoo.com","01716 488819","Kamille  Pouros","hosea41@yahoo.com","01716 488819","","","","",NA
"Noelia O'Conner","jason_howe73@yahoo.com","03754 134047","Noelia  O' Conner","jason_howe73@yahoo.com","03754 134047","","","","",NA
"Jaylon Bernhard","roberto77@hotmail.com","01719 999686","Jaylon  Bernhard","roberto77@hotmail.com","01719 999686","","","","",NA
"Kenya Medhurst","wiley.sporer24@hotmail.com","01189 861470","Kenya  Medhurst","wiley.sporer24@hotmail.com","01189 861470","","","","",NA
"Emelia Oberbrunner","jakayla51@gmail.com","08005 861670","Emelia  Oberbrunner","jakayla51@gmail.com","08005 861670","","","","",NA
"Romaine Robel","marc_smith@hotmail.com","01118 705603","Romaine  Robel","marc_smith@hotmail.com","01118 705603","","","","",NA
"Raquel Aufderhar","beverly19@gmail.com","08008 060460","Raquel  Aufderhar","beverly19@gmail.com","08008 060460","","","","",NA
"Kayleigh Turcotte","eino.schultz@hotmail.com","08670 819842","Kayleigh  Turcotte","eino.schultz@hotmail.com","08670 819842","","","","",NA
"Lucienne Zulauf","tracey_zemlak@yahoo.com","01900 977930","Lucienne  Zulauf","tracey_zemlak@yahoo.com","01900 977930","","","","",NA
"Isadore Marks","carmela67@gmail.com","02632 117942","Isadore  Marks","carmela67@gmail.com","02632 117942","","","","",NA
"Estevan Gleason Jr.","elvis.zboncak@gmail.com","03284 524760","Estevan  Gleason  Jr.","elvis.zboncak@gmail.com","03284 524760","","","","",NA
"Alf Reinger","edwina_cartwright35@gmail.com","01697 728990","Alf  Reinger","edwina_cartwright35@gmail.com","01697 728990","","","","",NA
"Deborah Dare","thalia.schuster@gmail.com","01253 493570","Deborah  Dare","thalia.schuster@gmail.com","01253 493570","","","","",NA
"Mayra Fisher","bo97@gmail.com","02203 736877","Mayra  Fisher","bo97@gmail.com","02203 736877","","","","",NA
"Dr. Pierce Kris","cynthia_dickens94@yahoo.com","05530 493290","Dr.  Pierce  Kris","cynthia_dickens94@yahoo.com","05530 493290","","","","",NA
"Miss Loma Hodkiewicz","royal.kiehn64@hotmail.com","08638 814312","Miss  Loma  Hodkiewicz","royal.kiehn64@hotmail.com","08638 814312","","","","",NA
"Blake Emard","frederic86@yahoo.com","08007 811799","Blake  Emard","frederic86@yahoo.com","08007 811799","","","","",NA
"Leo Carter","roel43@gmail.com","0827 04395","Leo  Carter","roel43@gmail.com","08270 4395","[ ""C2"", ""C3"" ]","","","TRUE",NA
"Ozella Baumbach","arden_tillman80@yahoo.com","01939 230038","Ozella  Baumbach","arden_tillman80@yahoo.com","01939 230038","","","","",NA
"Newton Schoen","israel_lueilwitz@yahoo.com","01869 392040","Newton  Schoen","israel_lueilwitz@yahoo.com","01869 392040","","","","",NA
"Yadira Marquardt","jennings_bruen@gmail.com","03976 121709","Yadira  Marquardt","jennings_bruen@gmail.com","03976 121709","","","","",NA
"Eldred Watsica","dana.crona@yahoo.com","02773 920165","Eldred  Watsica","dana.crona@yahoo.com","02773 920165","","","","",NA
"Aylin Hermiston","brenda_douglas77@gmail.com","02241 542819","Aylin  Hermiston","brenda_douglas77@gmail.com","02241 542819","","","","",NA
"Teagan Balistreri II","amber.pacocha34@gmail.com","05696 051802","Teagan  Balistreri  I I","amber.pacocha34@gmail.com","05696 051802","","","","",NA
"Devonte Jacobson III","bailey73@hotmail.com","01619 625538","Devonte  Jacobson  I I I","bailey73@hotmail.com","01619 625538","","","","",NA
"Romaine Rutherford","ted94@hotmail.com","01416 614068","Romaine  Rutherford","ted94@hotmail.com","01416 614068","","","","",NA
"Norbert Boyer","althea_carter96@hotmail.com","02018 332001","Norbert  Boyer","althea_carter96@hotmail.com","02018 332001","","","","",NA
"Foster Swift","marlin16@gmail.com","09538 046035","Foster  Swift","marlin16@gmail.com","09538 046035","","","","",NA
"Sydney Ritchie","gaetano71@yahoo.com","05695 554235","Sydney  Ritchie","gaetano71@yahoo.com","05695 554235","","","","",NA
"Charles Balistreri II","justus_johns79@yahoo.com","05654 272243","Charles  Balistreri  I I","justus_johns79@yahoo.com","05654 272243","","","","",NA
"Cathrine Jerde Jr.","anika_simonis34@yahoo.com","01385 761800","Cathrine  Jerde  Jr.","anika_simonis34@yahoo.com","01385 761800","","","","",NA
"Laurine Pagac","freddie_gutkowski97@hotmail.com","01884 342615","Laurine  Pagac","freddie_gutkowski97@hotmail.com","01884 342615","","","","",NA
"Arturo Lynch","ernestina_hagenes92@yahoo.com","02601 506192","Arturo  Lynch","ernestina_hagenes92@yahoo.com","02601 506192","","","","",NA
"Mathew Moore","clementina_king51@gmail.com","09774 059018","Mathew  Moore","clementina_king51@gmail.com","09774 059018","","","","",NA
"Shanny Becker","humberto.cole13@yahoo.com","08908 446811","Shanny  Becker","humberto.cole13@yahoo.com","08908 446811","","","","",NA
"Alvis McKenzie","carolina.rogahn@hotmail.com","01801 572044","Alvis  Mc Kenzie","carolina.rogahn@hotmail.com","01801 572044","","","","",NA
"Diamond Howe DDS","alana_romaguera11@gmail.com","05686 241437","Diamond  Howe  D D S","alana_romaguera11@gmail.com","05686 241437","","","","",NA
"Hattie Crist II","mabel.koepp@gmail.com","01716 568757","Hattie  Crist  I I","mabel.koepp@gmail.com","01716 568757","","","","",NA
"Miss Araceli Gaylord","gennaro12@hotmail.com","01916 762719","Miss  Araceli  Gaylord","gennaro12@hotmail.com","01916 762719","","","","",NA
"Emma Swift","evie_jenkins@hotmail.com","09173 399356","Emma  Swift","evie_jenkins@hotmail.com","09173 399356","","","","",NA
"Laron Corwin","hazle_abernathy6@hotmail.com","08000 345370","Laron  Corwin","hazle_abernathy6@hotmail.com","08000 345370","","","","",NA
"Joanie Hettinger","keira.ferry@yahoo.com","01481 133660","Joanie  Hettinger","keira.ferry@yahoo.com","01481 133660","","","","",NA
"Joan Marvin","janessa3@yahoo.com","01048 465240","Joan  Marvin","janessa3@yahoo.com","01048 465240","","","","",NA
"Dr. Mayra Bernhard","frankie.runolfsdottir@hotmail.com","01017 943892","Dr.  Mayra  Bernhard","frankie.runolfsdottir@hotmail.com","01017 943892","","","","",NA
"Penelope Daniel","hardy65@gmail.com","05570 681625","Penelope  Daniel","hardy65@gmail.com","05570 681625","","","","",NA
"Dr. Brenden Erdman","susie99@yahoo.com","05003 238170","Dr.  Brenden  Erdman","susie99@yahoo.com","05003 238170","","","","",NA
"Cassidy Kertzmann","ashly.weber@hotmail.com","01402 979823","Cassidy  Kertzmann","ashly.weber@hotmail.com","01402 979823","","","","",NA
"Derek Parisian","ismael91@yahoo.com","01131 014844","Derek  Parisian","ismael91@yahoo.com","01131 014844","","","","",NA
"Ken Waters","brendon_ledner@yahoo.com","05008 857230","Ken  Waters","brendon_ledner@yahoo.com","05008 857230","","","","",NA
"Lisandro Parisian","charlie_okuneva96@yahoo.com","01018 303924","Lisandro  Parisian","charlie_okuneva96@yahoo.com","01018 303924","","","","",NA
"Tre Hodkiewicz","marina61@gmail.com","08000 836860","Tre  Hodkiewicz","marina61@gmail.com","08000 836860","","","","",NA
"Casper Russel","florencio.weimann73@gmail.com","01697 765150","Casper  Russel","florencio.weimann73@gmail.com","01697 765150","","","","",NA
"Josue Corwin","ben.schuppe@yahoo.com","08456 390763","Josue  Corwin","ben.schuppe@yahoo.com","08456 390763","","","","",NA
"Fidel Hayes","elmo_crooks@yahoo.com","05668 430634","Fidel  Hayes","elmo_crooks@yahoo.com","05668 430634","","","","",NA
"Madeline Kovacek","amara36@yahoo.com","05006 500900","Madeline  Kovacek","amara36@yahoo.com","05006 500900","","","","",NA
"Abigail Haley","elliott25@hotmail.com","08004 579783","Abigail  Haley","elliott25@hotmail.com","08004 579783","","","","",NA
"Miss Cyrus Beier","camryn.rutherford@yahoo.com","08009 849760","Miss  Cyrus  Beier","camryn.rutherford@yahoo.com","08009 849760","","","","",NA
"Thaddeus Simonis","emmalee.rolfson@gmail.com","05003 668700","Thaddeus  Simonis","emmalee.rolfson@gmail.com","05003 668700","","","","",NA
"Mr. Cheyanne Johns","luis_cronin@yahoo.com","01366 344002","Mr.  Cheyanne  Johns","luis_cronin@yahoo.com","01366 344002","","","","",NA
"Alyson Howe","herbert68@hotmail.com","08008 697410","Alyson  Howe","herbert68@hotmail.com","08008 697410","","","","",NA
"Gwen Wunsch","augustine.wyman25@yahoo.com","01111 474291","Gwen  Wunsch","augustine.wyman25@yahoo.com","01111 474291","","","","",NA
"Elias Kihn","caterina_olson2@yahoo.com","08606 597103","Elias  Kihn","caterina_olson2@yahoo.com","08606 597103","","","","",NA
"Dr. May O'Connell","alba.cassin@yahoo.com","09864 402112","Dr.  May  O' Connell","alba.cassin@yahoo.com","09864 402112","","","","",NA
"Abby Paucek","darius.schumm@yahoo.com","01193 649800","Abby  Paucek","darius.schumm@yahoo.com","01193 649800","","","","",NA
"Mrs. Daisha Gerlach","pearl59@gmail.com","03344 254785","Mrs.  Daisha  Gerlach","pearl59@gmail.com","03344 254785","","","","",NA
"Deshaun Reynolds","ansley46@hotmail.com","05641 396146","Deshaun  Reynolds","ansley46@hotmail.com","05641 396146","","","","",NA
"Monroe Hessel","gerda_abernathy@gmail.com","05547 011270","Monroe  Hessel","gerda_abernathy@gmail.com","05547 011270","","","","",NA
"Mrs. Ruben Fay","hassan97@gmail.com","01697 791890","Mrs.  Ruben  Fay","hassan97@gmail.com","01697 791890","","","","",NA
"Rosemary Sanford","cicero_oconnell@hotmail.com","08819 477726","Rosemary  Sanford","cicero_oconnell@hotmail.com","08819 477726","","","","",NA
"Brayan Hansen DVM","jasper.cruickshank91@yahoo.com","01895 898542","Brayan  Hansen  D V M","jasper.cruickshank91@yahoo.com","01895 898542","","","","",NA
"Rae Hyatt","jalyn_ledner@yahoo.com","08008 114741","Rae  Hyatt","jalyn_ledner@yahoo.com","08008 114741","","","","",NA
"Opal Torp","lavinia.nitzsche@gmail.com","01967 924989","Opal  Torp","lavinia.nitzsche@gmail.com","01967 924989","","","","",NA
"Jany Medhurst","geovany67@gmail.com","05593 501815","Jany  Medhurst","geovany67@gmail.com","05593 501815","","","","",NA
"Merl Koch","lilly92@hotmail.com","09679 600706","Merl  Koch","lilly92@hotmail.com","09679 600706","","","","",NA
"Miss Charlene Blanda","cleveland_ankunding32@gmail.com","01400 651318","Miss  Charlene  Blanda","cleveland_ankunding32@gmail.com","01400 651318","","","","",NA
"Doug Kovacek","aimee.block44@gmail.com","08004 662520","Doug  Kovacek","aimee.block44@gmail.com","08004 662520","","","","",NA
"Alexys Lind","laura97@hotmail.com","01156 155467","Alexys  Lind","laura97@hotmail.com","01156 155467","","","","",NA
"Jazmyne Anderson","alessandro.goodwin80@gmail.com","01630 018110","Jazmyne  Anderson","alessandro.goodwin80@gmail.com","01630 018110","","","","",NA
"Finn Champlin DDS","jarred45@hotmail.com","02362 280201","Finn  Champlin  D D S","jarred45@hotmail.com","02362 280201","","","","",NA
"Gregory McClure","lorenzo_oconner12@yahoo.com","05007 222030","Gregory  Mc Clure","lorenzo_oconner12@yahoo.com","05007 222030","","","","",NA
"Josephine Ruecker IV","harry.olson83@yahoo.com","01681 203660","Josephine  Ruecker  I V","harry.olson83@yahoo.com","01681 203660","","","","",NA
"Felicia Schulist","rolando.rice61@hotmail.com","01911 462330","Felicia  Schulist","rolando.rice61@hotmail.com","01911 462330","","","","",NA
"Leopold Sporer","melyssa_medhurst@yahoo.com","08003 054060","Leopold  Sporer","melyssa_medhurst@yahoo.com","08003 054060","","","","",NA
"Freddie Cassin","jairo53@hotmail.com","08000 676782","Freddie  Cassin","jairo53@hotmail.com","08000 676782","","","","",NA
"Laury Medhurst","makayla.homenick83@hotmail.com","09814 983648","Laury  Medhurst","makayla.homenick83@hotmail.com","09814 983648","","","","",NA
"Armand Wyman","micheal.cole7@hotmail.com","09950 914368","Armand  Wyman","micheal.cole7@hotmail.com","09950 914368","","","","",NA
"Margarette Dickinson Sr.","archibald.ritchie88@gmail.com","02073 447045","Margarette  Dickinson  Sr.","archibald.ritchie88@gmail.com","02073 447045","","","","",NA
"Krystina Hayes","georgianna.volkman20@gmail.com","01697 797520","Krystina  Hayes","georgianna.volkman20@gmail.com","01697 797520","","","","",NA
"Vinnie Pollich","alf80@gmail.com","08000 861364","Vinnie  Pollich","alf80@gmail.com","08000 861364","","","","",NA
"Aurelio Larson Jr.","fredy.stracke@gmail.com","01316 631283","Aurelio  Larson  Jr.","fredy.stracke@gmail.com","01316 631283","","","","",NA
"Werner Rau","emilie_fay13@yahoo.com","+44(0) 10576 54550","Werner  Rau","emilie_fay13@yahoo.com","01057 654550","[ ""C1"", ""C4"", ""C2"" ]","","","","+44"
"Rupert Corkery II","deon.feest@yahoo.com","05639 930015","Rupert  Corkery  I I","deon.feest@yahoo.com","05639 930015","","","","",NA
"Tatum Oberbrunner","jaida_yost@gmail.com","08002 375080","Tatum  Oberbrunner","jaida_yost@gmail.com","08002 375080","","","","",NA
"Mckayla Goyette","maddison_hudson21@gmail.com","05549 919745","Mckayla  Goyette","maddison_hudson21@gmail.com","05549 919745","","","","",NA
"Zackery Kunde","sibyl_gutkowski69@gmail.com","02698 802499","Zackery  Kunde","sibyl_gutkowski69@gmail.com","02698 802499","","","","",NA
"Rickie Johnston","sincere.sawayn80@hotmail.com","01697 743090","Rickie  Johnston","sincere.sawayn80@hotmail.com","01697 743090","","","","",NA
"Lance Ledner","maia_lang@hotmail.com","01144 724050","Lance  Ledner","maia_lang@hotmail.com","01144 724050","","","","",NA
"Margarete Hegmann","rasheed_howe@gmail.com","08001 238100","Margarete  Hegmann","rasheed_howe@gmail.com","08001 238100","","","","",NA
"Geovanni Herzog","callie.bernier80@yahoo.com","01179 200573","Geovanni  Herzog","callie.bernier80@yahoo.com","01179 200573","","","","",NA
"Mr. Loyce Pacocha","nannie.huels4@gmail.com","01616 398353","Mr.  Loyce  Pacocha","nannie.huels4@gmail.com","01616 398353","","","","",NA
"Oma Anderson","kitty.lind83@gmail.com","01712 973064","Oma  Anderson","kitty.lind83@gmail.com","01712 973064","","","","",NA
"Ivah Gerlach","guy.jakubowski38@hotmail.com","01413 875411","Ivah  Gerlach","guy.jakubowski38@hotmail.com","01413 875411","","","","",NA
"Stephania Goyette","amie_pacocha@yahoo.com","08006 726740","Stephania  Goyette","amie_pacocha@yahoo.com","08006 726740","","","","",NA
"Elliot Bahringer","marcelina.reinger46@gmail.com","08005 181238","Elliot  Bahringer","marcelina.reinger46@gmail.com","08005 181238","","","","",NA
"Zachariah Hartmann","reginald_schowalter78@hotmail.com","01131 279127","Zachariah  Hartmann","reginald_schowalter78@hotmail.com","01131 279127","","","","",NA
"Ms. Dandre Windler","eleazar_mohr47@yahoo.com","05619 575648","Ms.  Dandre  Windler","eleazar_mohr47@yahoo.com","05619 575648","","","","",NA
"Reta Gorczany","kendall54@hotmail.com","02059 133544","Reta  Gorczany","kendall54@hotmail.com","02059 133544","","","","",NA
"Mr. Jacky Raynor","rusty73@gmail.com","02718 249885","Mr.  Jacky  Raynor","rusty73@gmail.com","02718 249885","","","","",NA
"Allen Bogisich IV","herminio_romaguera21@yahoo.com","08009 396010","Allen  Bogisich  I V","herminio_romaguera21@yahoo.com","08009 396010","","","","",NA
"Lelia Willms","maximo.crooks@hotmail.com","08008 331710","Lelia  Willms","maximo.crooks@hotmail.com","08008 331710","","","","",NA
"Keeley Skiles","zaria.larson@hotmail.com","05699 884938","Keeley  Skiles","zaria.larson@hotmail.com","05699 884938","","","","",NA
"Shyanne Dickinson","morris.cummerata54@yahoo.com","08005 971140","Shyanne  Dickinson","morris.cummerata54@yahoo.com","08005 971140","","","","",NA
"Elvis Cormier","rosalia.reilly22@yahoo.com","08611 288173","Elvis  Cormier","rosalia.reilly22@yahoo.com","08611 288173","","","","",NA
"Joanie Frami","earnest27@gmail.com","03179 998658","Joanie  Frami","earnest27@gmail.com","03179 998658","","","","",NA
"Georgette Hackett","ceasar_conn@yahoo.com","01189 112062","Georgette  Hackett","ceasar_conn@yahoo.com","01189 112062","","","","",NA
"Brannon MacGyver","immanuel_kemmer@yahoo.com","09299 096997","Brannon  Mac Gyver","immanuel_kemmer@yahoo.com","09299 096997","","","","",NA
"Rachel Barrows","paolo.dooley88@hotmail.com","02536 733792","Rachel  Barrows","paolo.dooley88@hotmail.com","02536 733792","","","","",NA
"Ms. Coleman Bruen","horace37@gmail.com","09918 187243","Ms.  Coleman  Bruen","horace37@gmail.com","09918 187243","","","","",NA
"Matteo Wilkinson","alene.stroman@yahoo.com","01413 403269","Matteo  Wilkinson","alene.stroman@yahoo.com","01413 403269","","","","",NA
"Mrs. Erin Zboncak","jake88@gmail.com","01881 303310","Mrs.  Erin  Zboncak","jake88@gmail.com","01881 303310","","","","",NA
"Toney Donnelly","jacey.rice@gmail.com","01885 879140","Toney  Donnelly","jacey.rice@gmail.com","01885 879140","","","","",NA
"Mr. Pierre Paucek","olaf5@hotmail.com","01244 901035","Mr.  Pierre  Paucek","olaf5@hotmail.com","01244 901035","","","","",NA
"Adolfo Schaefer","larissa_bogan92@hotmail.com","05633 845003","Adolfo  Schaefer","larissa_bogan92@hotmail.com","05633 845003","","","","",NA
"Myrtice Carroll","jimmy11@hotmail.com","01011 381354","Myrtice  Carroll","jimmy11@hotmail.com","01011 381354","","","","",NA
"Ibrahim White","lue97@yahoo.com","08000 530378","Ibrahim  White","lue97@yahoo.com","08000 530378","","","","",NA
"Sylvia Nikolaus DDS","rogers_oconnell10@yahoo.com","01715 124171","Sylvia  Nikolaus  D D S","rogers_oconnell10@yahoo.com","01715 124171","","","","",NA
"Bethany Ledner","tristin45@hotmail.com","08009 210330","Bethany  Ledner","tristin45@hotmail.com","08009 210330","","","","",NA
"Tyshawn Green","emerson_terry50@hotmail.com","08950 994674","Tyshawn  Green","emerson_terry50@hotmail.com","08950 994674","","","","",NA
"Stanford Runolfsson","jamil.carter64@hotmail.com","09336 402277","Stanford  Runolfsson","jamil.carter64@hotmail.com","09336 402277","","","","",NA
"Fredrick Hartmann","odessa53@hotmail.com","09278 051125","Fredrick  Hartmann","odessa53@hotmail.com","09278 051125","","","","",NA
"Octavia Boehm","oscar44@yahoo.com","03282 202874","Octavia  Boehm","oscar44@yahoo.com","03282 202874","","","","",NA
"Samir Denesik","dejon_kuhic95@gmail.com","02321 786338","Samir  Denesik","dejon_kuhic95@gmail.com","02321 786338","","","","",NA
"Piper Parker","aileen_dubuque56@gmail.com","02461 432843","Piper  Parker","aileen_dubuque56@gmail.com","02461 432843","","","","",NA
"Anahi Cummerata","reginald.cartwright@yahoo.com","02010 974007","Anahi  Cummerata","reginald.cartwright@yahoo.com","02010 974007","","","","",NA
"Ms. Brendan Schimmel","brant_lang89@gmail.com","02223 124833","Ms.  Brendan  Schimmel","brant_lang89@gmail.com","02223 124833","","","","",NA
"Arely Deckow","caleigh_quigley@yahoo.com","01901 250446","Arely  Deckow","caleigh_quigley@yahoo.com","01901 250446","","","","",NA
"Mollie Dietrich","sigmund.oconnell44@gmail.com","08007 694970","Mollie  Dietrich","sigmund.oconnell44@gmail.com","08007 694970","","","","",NA
"Hans Bins","carmelo_johns44@hotmail.com","08008 974390","Hans  Bins","carmelo_johns44@hotmail.com","08008 974390","","","","",NA
"Alta Bins","danika_johnson77@gmail.com","01135 129136","Alta  Bins","danika_johnson77@gmail.com","01135 129136","","","","",NA
"Raina Yundt","stephania77@yahoo.com","01156 466456","Raina  Yundt","stephania77@yahoo.com","01156 466456","","","","",NA
"Roman Walsh","laurine99@hotmail.com","01101 553884","Roman  Walsh","laurine99@hotmail.com","01101 553884","","","","",NA
"Miss Newell Kreiger","leatha63@gmail.com","05009 651240","Miss  Newell  Kreiger","leatha63@gmail.com","05009 651240","","","","",NA
"Jaycee Rohan","horace95@gmail.com","01211 751754","Jaycee  Rohan","horace95@gmail.com","01211 751754","","","","",NA
"Mr. Torrance Green","charlotte.hoppe@gmail.com","01474 889530","Mr.  Torrance  Green","charlotte.hoppe@gmail.com","01474 889530","","","","",NA
"Electa Ondricka","antonina85@yahoo.com","05581 476235","Electa  Ondricka","antonina85@yahoo.com","05581 476235","","","","",NA
"Daniela Legros","shanel_cummerata@hotmail.com","02702 748326","Daniela  Legros","shanel_cummerata@hotmail.com","02702 748326","","","","",NA
"Marietta Kuvalis","retha30@hotmail.com","03696 488567","Marietta  Kuvalis","retha30@hotmail.com","03696 488567","","","","",NA
"Ms. Cassidy Eichmann","lew66@yahoo.com","01178 976751","Ms.  Cassidy  Eichmann","lew66@yahoo.com","01178 976751","","","","",NA
"Cleo Will","forest.pfeffer@gmail.com","05663 972557","Cleo  Will","forest.pfeffer@gmail.com","05663 972557","","","","",NA
"Kacey Hackett","lillian_leffler@gmail.com","03574 016655","Kacey  Hackett","lillian_leffler@gmail.com","03574 016655","","","","",NA
"Lee Huels","lew.williamson2@gmail.com","01697 781440","Lee  Huels","lew.williamson2@gmail.com","01697 781440","","","","",NA
"Deon Walter","gerhard.kris17@gmail.com","09739 728005","Deon  Walter","gerhard.kris17@gmail.com","09739 728005","","","","",NA
"Jena Shanahan","orville.purdy@hotmail.com","08004 944600","Jena  Shanahan","orville.purdy@hotmail.com","08004 944600","","","","",NA
"Cordelia Bode","abigale33@hotmail.com","08744 129146","Cordelia  Bode","abigale33@hotmail.com","08744 129146","","","","",NA
"Adonis Abernathy","orie62@hotmail.com","01174 191349","Adonis  Abernathy","orie62@hotmail.com","01174 191349","","","","",NA
"Mr. Cristina Hartmann","bryana.kirlin@yahoo.com","08959 085369","Mr.  Cristina  Hartmann","bryana.kirlin@yahoo.com","08959 085369","","","","",NA
"Floy Connelly","rodolfo_littel@hotmail.com","01017 957378","Floy  Connelly","rodolfo_littel@hotmail.com","01017 957378","","","","",NA
"Rowland Dibbert","gerard53@yahoo.com","01044 212760","Rowland  Dibbert","gerard53@yahoo.com","01044 212760","","","","",NA
"Laurel Hoppe","silas_waelchi@gmail.com","03384 880508","Laurel  Hoppe","silas_waelchi@gmail.com","03384 880508","","","","",NA
"Ambrose Torphy","daniella_davis37@hotmail.com","03447 408736","Ambrose  Torphy","daniella_davis37@hotmail.com","03447 408736","","","","",NA
"Rodger Miller III","bell.gutmann@hotmail.com","08005 131660","Rodger  Miller  I I I","bell.gutmann@hotmail.com","08005 131660","","","","",NA
"Sigurd Jacobson","abigail_will99@gmail.com","08001 089008","Sigurd  Jacobson","abigail_will99@gmail.com","08001 089008","","","","",NA
"Deshawn Wuckert II","kory_mckenzie48@gmail.com","05550 539964","Deshawn  Wuckert  I I","kory_mckenzie48@gmail.com","05550 539964","","","","",NA
"Andrew Stracke","geovanni_padberg@hotmail.com","02837 061774","Andrew  Stracke","geovanni_padberg@hotmail.com","02837 061774","","","","",NA
"Miss Ernest Schiller","madelyn32@gmail.com","01695 405730","Miss  Ernest  Schiller","madelyn32@gmail.com","01695 405730","","","","",NA
"Crystel MacGyver","lisandro_robel61@gmail.com","08000 351127","Crystel  Mac Gyver","lisandro_robel61@gmail.com","08000 351127","","","","",NA
"Dr. Isobel Ward","rachael_mccullough@yahoo.com","09259 731493","Dr.  Isobel  Ward","rachael_mccullough@yahoo.com","09259 731493","","","","",NA
"Ms. Candelario Kerluke","elisabeth_schroeder@hotmail.com","08503 013131","Ms.  Candelario  Kerluke","elisabeth_schroeder@hotmail.com","08503 013131","","","","",NA
"Francisca Crist","minerva.mills32@yahoo.com","01697 790790","Francisca  Crist","minerva.mills32@yahoo.com","01697 790790","","","","",NA
"Jewell Hagenes","lucinda.bins@yahoo.com","01109 343212","Jewell  Hagenes","lucinda.bins@yahoo.com","01109 343212","","","","",NA
"Kristoffer Hane","carli72@yahoo.com","01584 850414","Kristoffer  Hane","carli72@yahoo.com","01584 850414","","","","",NA
"Graciela Shields","noe_baumbach76@yahoo.com","05632 066941","Graciela  Shields","noe_baumbach76@yahoo.com","05632 066941","","","","",NA
"Jeanette Bashirian","jennifer.emmerich@yahoo.com","08006 204748","Jeanette  Bashirian","jennifer.emmerich@yahoo.com","08006 204748","","","","",NA
"Ruby Maggio","juana.wyman@yahoo.com","01148 810523","Ruby  Maggio","juana.wyman@yahoo.com","01148 810523","","","","",NA
"Tyrell Willms","winston_volkman@hotmail.com","05500 444099","Tyrell  Willms","winston_volkman@hotmail.com","05500 444099","","","","",NA
"Magdalena Robel","zella.beatty@hotmail.com","01367 548688","Magdalena  Robel","zella.beatty@hotmail.com","01367 548688","","","","",NA
"Ms. Eden Wehner","delmer.robel88@yahoo.com","01307 933029","Ms.  Eden  Wehner","delmer.robel88@yahoo.com","01307 933029","","","","",NA
"Garett Medhurst","berenice_herman@gmail.com","01151 552402","Garett  Medhurst","berenice_herman@gmail.com","01151 552402","","","","",NA
"Milo Gislason","elta48@gmail.com","02464 241922","Milo  Gislason","elta48@gmail.com","02464 241922","","","","",NA
"Madeline Dach","madison68@yahoo.com","01697 763240","Madeline  Dach","madison68@yahoo.com","01697 763240","","","","",NA
"Ms. Mary Volkman","boyd_jast@yahoo.com","01518 608192","Ms.  Mary  Volkman","boyd_jast@yahoo.com","01518 608192","","","","",NA
"Virgil Donnelly","lorine53@hotmail.com","01162 531975","Virgil  Donnelly","lorine53@hotmail.com","01162 531975","","","","",NA
"Edwin Shanahan","abdiel_moen@hotmail.com","08662 621688","Edwin  Shanahan","abdiel_moen@hotmail.com","08662 621688","","","","",NA
"General Bode","donny_erdman16@hotmail.com","01165 667712","General  Bode","donny_erdman16@hotmail.com","01165 667712","","","","",NA
"Mr. Kiel Gottlieb","earnest_kuhic@gmail.com","09861 620504","Mr.  Kiel  Gottlieb","earnest_kuhic@gmail.com","09861 620504","","","","",NA
"Leslie Schroeder","taylor.schoen70@hotmail.com","05506 867494","Leslie  Schroeder","taylor.schoen70@hotmail.com","05506 867494","","","","",NA
"Murl Thiel","broderick_volkman@yahoo.com","01144 958485","Murl  Thiel","broderick_volkman@yahoo.com","01144 958485","","","","",NA
"Christiana Lehner","billy.stanton@hotmail.com","01503 497966","Christiana  Lehner","billy.stanton@hotmail.com","01503 497966","","","","",NA
"Rigoberto Koch","allan_weimann@hotmail.com","01411 209138","Rigoberto  Koch","allan_weimann@hotmail.com","01411 209138","","","","",NA
"Miss Israel Murphy","donavon34@gmail.com","03620 130203","Miss  Israel  Murphy","donavon34@gmail.com","03620 130203","","","","",NA
"Furman Hansen","edwina_collins@hotmail.com","05607 984522","Furman  Hansen","edwina_collins@hotmail.com","05607 984522","","","","",NA
"Benton Hamill","tiffany2@yahoo.com","01263 973920","Benton  Hamill","tiffany2@yahoo.com","01263 973920","","","","",NA
"Delta Heidenreich","lura.steuber17@hotmail.com","05003 383430","Delta  Heidenreich","lura.steuber17@hotmail.com","05003 383430","","","","",NA
"Brent Wyman","grace_pfeffer@gmail.com","09958 281363","Brent  Wyman","grace_pfeffer@gmail.com","09958 281363","","","","",NA
"Ruthie Bergstrom","adriel.heller78@gmail.com","01117 332480","Ruthie  Bergstrom","adriel.heller78@gmail.com","01117 332480","","","","",NA
"Delaney Jerde","neva34@gmail.com","01132 942700","Delaney  Jerde","neva34@gmail.com","01132 942700","","","","",NA
"Peter Feest III","shaun99@hotmail.com","01083 585400","Peter  Feest  I I I","shaun99@hotmail.com","01083 585400","","","","",NA
"Kaylee Yundt","lincoln52@yahoo.com","05583 910090","Kaylee  Yundt","lincoln52@yahoo.com","05583 910090","","","","",NA
"Gilbert Powlowski","viola.runolfsson@hotmail.com","05639 751304","Gilbert  Powlowski","viola.runolfsson@hotmail.com","05639 751304","","","","",NA
"Alec Moore","chloe.larkin21@gmail.com","05667 341188","Alec  Moore","chloe.larkin21@gmail.com","05667 341188","","","","",NA
"Marquis Borer DDS","faye46@hotmail.com","01697 724580","Marquis  Borer  D D S","faye46@hotmail.com","01697 724580","","","","",NA
"Mrs. Gwen Bashirian","estevan_prohaska90@hotmail.com","03288 866974","Mrs.  Gwen  Bashirian","estevan_prohaska90@hotmail.com","03288 866974","","","","",NA
"Lorenza MacGyver Jr.","mervin.mitchell@yahoo.com","02512 934145","Lorenza  Mac Gyver  Jr.","mervin.mitchell@yahoo.com","02512 934145","","","","",NA
"Eryn Price","olga66@gmail.com","09373 097131","Eryn  Price","olga66@gmail.com","09373 097131","","","","",NA
"Geovanni Pfeffer","lelah25@gmail.com","01697 745580","Geovanni  Pfeffer","lelah25@gmail.com","01697 745580","","","","",NA
"Ms. Lonny Morissette","coy_boehm29@gmail.com","08524 837602","Ms.  Lonny  Morissette","coy_boehm29@gmail.com","08524 837602","","","","",NA
"Bruce Kautzer","dell2@hotmail.com","05000 307860","Bruce  Kautzer","dell2@hotmail.com","05000 307860","","","","",NA
"Celestine Pagac","susana.ruecker88@hotmail.com","08001 102135","Celestine  Pagac","susana.ruecker88@hotmail.com","08001 102135","","","","",NA
"Joshuah Feeney","naomi.prohaska9@gmail.com","08006 473502","Joshuah  Feeney","naomi.prohaska9@gmail.com","08006 473502","","","","",NA
"Brent Maggio","marcellus.runolfsson@gmail.com","08005 890906","Brent  Maggio","marcellus.runolfsson@gmail.com","08005 890906","","","","",NA
"Rosina Grimes","yvonne.boyle59@yahoo.com","05008 990370","Rosina  Grimes","yvonne.boyle59@yahoo.com","05008 990370","","","","",NA
"Chanel Nienow III","brad.koepp@gmail.com","08783 110933","Chanel  Nienow  I I I","brad.koepp@gmail.com","08783 110933","","","","",NA
"Madeline Fahey","cullen_bogisich@hotmail.com","05009 564390","Madeline  Fahey","cullen_bogisich@hotmail.com","05009 564390","","","","",NA
"Geovanny Rempel","monica75@gmail.com","01310 487572","Geovanny  Rempel","monica75@gmail.com","01310 487572","","","","",NA
"Kathlyn Anderson","alta45@yahoo.com","08189 002849","Kathlyn  Anderson","alta45@yahoo.com","08189 002849","","","","",NA
"Julie Stanton DVM","helen_aufderhar87@gmail.com","05664 868885","Julie  Stanton  D V M","helen_aufderhar87@gmail.com","05664 868885","","","","",NA
"Mr. Nakia Rowe","eleazar.grady@gmail.com","08005 925432","Mr.  Nakia  Rowe","eleazar.grady@gmail.com","08005 925432","","","","",NA
"Elmer Boehm","magdalen96@yahoo.com","05525 150571","Elmer  Boehm","magdalen96@yahoo.com","05525 150571","","","","",NA
"Verlie Kuhlman IV","randall83@yahoo.com","08897 325866","Verlie  Kuhlman  I V","randall83@yahoo.com","08897 325866","","","","",NA
"Dr. Dayne Keebler","carolyne32@gmail.com","05535 424647","Dr.  Dayne  Keebler","carolyne32@gmail.com","05535 424647","","","","",NA
"Libby Hartmann","zion.rolfson92@gmail.com","01176 906458","Libby  Hartmann","zion.rolfson92@gmail.com","01176 906458","","","","",NA
"Shania Marks","earnestine38@yahoo.com","09129 177244","Shania  Marks","earnestine38@yahoo.com","09129 177244","","","","",NA
"Brannon Goldner MD","rodrigo_kirlin@yahoo.com","01099 473280","Brannon  Goldner  M D","rodrigo_kirlin@yahoo.com","01099 473280","","","","",NA
"Kristina Hartmann","arvid.jenkins@hotmail.com","01618 992833","Kristina  Hartmann","arvid.jenkins@hotmail.com","01618 992833","","","","",NA
"Ottis Renner","andres_thompson60@yahoo.com","02185 354421","Ottis  Renner","andres_thompson60@yahoo.com","02185 354421","","","","",NA
"Tony Dickens","domenick.ankunding9@yahoo.com","01122 732273","Tony  Dickens","domenick.ankunding9@yahoo.com","01122 732273","","","","",NA
"Kaitlyn Armstrong","judy.deckow70@hotmail.com","01142 236096","Kaitlyn  Armstrong","judy.deckow70@hotmail.com","01142 236096","","","","",NA
"Miss Lane Gusikowski","sigurd88@hotmail.com","08003 912380","Miss  Lane  Gusikowski","sigurd88@hotmail.com","08003 912380","","","","",NA
"Elmo Lowe PhD","elbert13@gmail.com","08000 512480","Elmo  Lowe  Ph D","elbert13@gmail.com","08000 512480","","","","",NA
"Esta Cole","carolina25@gmail.com","01093 000139","Esta  Cole","carolina25@gmail.com","01093 000139","","","","",NA
"Richmond Okuneva","larry.terry@gmail.com","05589 114260","Richmond  Okuneva","larry.terry@gmail.com","05589 114260","","","","",NA
"Yvette Effertz","anne12@gmail.com","01141 077854","Yvette  Effertz","anne12@gmail.com","01141 077854","","","","",NA
"Ava Kuvalis","jude.brown26@hotmail.com","08003 795660","Ava  Kuvalis","jude.brown26@hotmail.com","08003 795660","","","","",NA
"Arnoldo Osinski","edna7@gmail.com","09741 323554","Arnoldo  Osinski","edna7@gmail.com","09741 323554","","","","",NA
"Audrey Lemke","jena66@hotmail.com","05652 252353","Audrey  Lemke","jena66@hotmail.com","05652 252353","","","","",NA
"Marcelle Donnelly","stacy47@yahoo.com","08003 907956","Marcelle  Donnelly","stacy47@yahoo.com","08003 907956","","","","",NA
"Jimmy Daniel","oren_gerhold62@hotmail.com","01419 702227","Jimmy  Daniel","oren_gerhold62@hotmail.com","01419 702227","","","","",NA
"Tavares Bergstrom","patsy.hills@yahoo.com","03391 768266","Tavares  Bergstrom","patsy.hills@yahoo.com","03391 768266","","","","",NA
"Russ Denesik","braxton66@yahoo.com","01197 900233","Russ  Denesik","braxton66@yahoo.com","01197 900233","","","","",NA
"Providenci Konopelski","freddy31@hotmail.com","05001 865270","Providenci  Konopelski","freddy31@hotmail.com","05001 865270","","","","",NA
"Sterling Stroman","adrain_volkman@hotmail.com","01697 760380","Sterling  Stroman","adrain_volkman@hotmail.com","01697 760380","","","","",NA
"Elva Terry","jolie18@yahoo.com","09480 448414","Elva  Terry","jolie18@yahoo.com","09480 448414","","","","",NA
"Retha Vandervort","molly80@hotmail.com","02942 789833","Retha  Vandervort","molly80@hotmail.com","02942 789833","","","","",NA
"Rigoberto Rogahn","daron_barrows26@gmail.com","08610 232950","Rigoberto  Rogahn","daron_barrows26@gmail.com","08610 232950","","","","",NA
"Jacquelyn Johns","danielle.schroeder21@gmail.com","09363 122605","Jacquelyn  Johns","danielle.schroeder21@gmail.com","09363 122605","","","","",NA
"Theodore Larson","neha60@yahoo.com","01538 232600","Theodore  Larson","neha60@yahoo.com","01538 232600","","","","",NA
"Marcel Fisher","dina_kirlin4@gmail.com","05000 539600","Marcel  Fisher","dina_kirlin4@gmail.com","05000 539600","","","","",NA
"Melba Windler","donnie80@yahoo.com","05008 362040","Melba  Windler","donnie80@yahoo.com","05008 362040","","","","",NA
"Mossie Ankunding","sydney_boyle95@gmail.com","08754 038879","Mossie  Ankunding","sydney_boyle95@gmail.com","08754 038879","","","","",NA
"Ms. Cedrick Kozey","bernadine.botsford@hotmail.com","01996 927792","Ms.  Cedrick  Kozey","bernadine.botsford@hotmail.com","01996 927792","","","","",NA
"Vicky Tremblay","gail31@gmail.com","05007 015070","Vicky  Tremblay","gail31@gmail.com","05007 015070","","","","",NA
"Chauncey Schinner","flo72@gmail.com","05006 551540","Chauncey  Schinner","flo72@gmail.com","05006 551540","","","","",NA
"Anna Kris","antwon.hahn@gmail.com","09273 061195","Anna  Kris","antwon.hahn@gmail.com","09273 061195","","","","",NA
"Harrison Hermann","kailey65@gmail.com","09068 909921","Harrison  Hermann","kailey65@gmail.com","09068 909921","","","","",NA
"Isaiah Gleason","franco_davis88@hotmail.com","01111 715857","Isaiah  Gleason","franco_davis88@hotmail.com","01111 715857","","","","",NA
"Judah Klein","clarabelle.rempel@hotmail.com","01222 365808","Judah  Klein","clarabelle.rempel@hotmail.com","01222 365808","","","","",NA
"Lolita Wolff","genevieve.swift52@hotmail.com","01016 464460","Lolita  Wolff","genevieve.swift52@hotmail.com","01016 464460","","","","",NA
"Kathryn Murphy","braxton_gibson@gmail.com","08002 838390","Kathryn  Murphy","braxton_gibson@gmail.com","08002 838390","","","","",NA
"Loyce Schumm","caleb.gleason@yahoo.com","05686 401494","Loyce  Schumm","caleb.gleason@yahoo.com","05686 401494","","","","",NA
"Royce Weissnat","joel39@yahoo.com","08001 662035","Royce  Weissnat","joel39@yahoo.com","08001 662035","","","","",NA
"Rocky Kohler","drake32@gmail.com","01109 800302","Rocky  Kohler","drake32@gmail.com","01109 800302","","","","",NA
"Travis Kessler","desmond.quigley@yahoo.com","02623 379484","Travis  Kessler","desmond.quigley@yahoo.com","02623 379484","","","","",NA
"Mr. Tom Braun","jayce_franecki13@hotmail.com","02871 358486","Mr.  Tom  Braun","jayce_franecki13@hotmail.com","02871 358486","","","","",NA
"Abdullah Russel","eldridge_corwin34@yahoo.com","01503 443690","Abdullah  Russel","eldridge_corwin34@yahoo.com","01503 443690","","","","",NA
"Mrs. Alexanne Cormier","rosina1@hotmail.com","08001 365279","Mrs.  Alexanne  Cormier","rosina1@hotmail.com","08001 365279","","","","",NA
"Giles Parisian","cali.larkin@yahoo.com","03342 068907","Giles  Parisian","cali.larkin@yahoo.com","03342 068907","","","","",NA
"Eloise Schaden","robert32@hotmail.com","08841 859723","Eloise  Schaden","robert32@hotmail.com","08841 859723","","","","",NA
"Arnoldo Raynor","kayden.tremblay60@gmail.com","01911 733090","Arnoldo  Raynor","kayden.tremblay60@gmail.com","01911 733090","","","","",NA
"Lester McDermott","jake34@hotmail.com","01612 061260","Lester  Mc Dermott","jake34@hotmail.com","01612 061260","","","","",NA
"Lorenzo Beer","boyd71@yahoo.com","01917 037372","Lorenzo  Beer","boyd71@yahoo.com","01917 037372","","","","",NA
"Mose O'Hara","brayan27@gmail.com","05681 094608","Mose  O' Hara","brayan27@gmail.com","05681 094608","","","","",NA
"Malcolm Schamberger","jabari_kerluke57@gmail.com","05663 748473","Malcolm  Schamberger","jabari_kerluke57@gmail.com","05663 748473","","","","",NA
"Jacynthe Towne PhD","leon_moore@hotmail.com","01710 934588","Jacynthe  Towne  Ph D","leon_moore@hotmail.com","01710 934588","","","","",NA
"Tomasa Thompson","ansley.streich0@hotmail.com","01217 387164","Tomasa  Thompson","ansley.streich0@hotmail.com","01217 387164","","","","",NA
"Maia Bernier","alexis_cruickshank71@gmail.com","01759 005726","Maia  Bernier","alexis_cruickshank71@gmail.com","01759 005726","","","","",NA
"Reuben Jacobi","orval.hoppe@yahoo.com","01476 666541","Reuben  Jacobi","orval.hoppe@yahoo.com","01476 666541","","","","",NA
"Ophelia Stiedemann","ova_barton18@hotmail.com","01918 794220","Ophelia  Stiedemann","ova_barton18@hotmail.com","01918 794220","","","","",NA
"Oren Conn","percival.reichert52@gmail.com","01895 170000","Oren  Conn","percival.reichert52@gmail.com","01895 170000","","","","",NA
"Florian Dooley","akeem_quigley@yahoo.com","01849 199076","Florian  Dooley","akeem_quigley@yahoo.com","01849 199076","","","","",NA
"Celia Stark","donnell_runolfsson@gmail.com","01556 223559","Celia  Stark","donnell_runolfsson@gmail.com","01556 223559","","","","",NA
"Haven Barton","marietta80@yahoo.com","08004 891510","Haven  Barton","marietta80@yahoo.com","08004 891510","","","","",NA
"Ms. Rico Will","jack50@hotmail.com","05668 276463","Ms.  Rico  Will","jack50@hotmail.com","05668 276463","","","","",NA
"Jadyn Bernhard","roxanne.pouros@yahoo.com","05654 700655","Jadyn  Bernhard","roxanne.pouros@yahoo.com","05654 700655","","","","",NA
"Isadore Connelly","rodrigo_okon79@yahoo.com","01848 752905","Isadore  Connelly","rodrigo_okon79@yahoo.com","01848 752905","","","","",NA
"Genoveva Streich","katelin.bailey3@hotmail.com","09468 464171","Genoveva  Streich","katelin.bailey3@hotmail.com","09468 464171","","","","",NA
"Felicita Marvin","marshall.murazik@gmail.com","+27 (0)25179 95430","Felicita  Marvin","marshall.murazik@gmail.com","02517 995430","[ ""C1"", ""C2"", ""C5"" ]","","","TRUE","+27"
"Lucio Connelly","hulda61@gmail.com","01913 282353","Lucio  Connelly","hulda61@gmail.com","01913 282353","","","","",NA
"Jeramie Gleason","omer46@hotmail.com","05004 690350","Jeramie  Gleason","omer46@hotmail.com","05004 690350","","","","",NA
"Haylee Hessel","jasper_stiedemann@hotmail.com","02376 823838","Haylee  Hessel","jasper_stiedemann@hotmail.com","02376 823838","","","","",NA
"Ephraim Powlowski","trever_boehm@gmail.com","03383 930242","Ephraim  Powlowski","trever_boehm@gmail.com","03383 930242","","","","",NA
"Percy Ortiz","aniyah9@hotmail.com","01730 165309","Percy  Ortiz","aniyah9@hotmail.com","01730 165309","","","","",NA
"Eleazar Prohaska","della.mayert37@yahoo.com","03544 925903","Eleazar  Prohaska","della.mayert37@yahoo.com","03544 925903","","","","",NA
"Brigitte Weber II","eric_pollich21@gmail.com","01781 459817","Brigitte  Weber  I I","eric_pollich21@gmail.com","01781 459817","","","","",NA
"Noelia Bogisich","shanie.schneider5@hotmail.com","08001 016682","Noelia  Bogisich","shanie.schneider5@hotmail.com","08001 016682","","","","",NA
"Deven Greenfelder IV","norberto_mcglynn44@yahoo.com","05637 390375","Deven  Greenfelder  I V","norberto_mcglynn44@yahoo.com","05637 390375","","","","",NA
"Jerome Russel","maggie.wunsch@hotmail.com","01108 847734","Jerome  Russel","maggie.wunsch@hotmail.com","01108 847734","","","","",NA
"Cade Von","sylvester9@hotmail.com","03983 016883","Cade  Von","sylvester9@hotmail.com","03983 016883","","","","",NA
"Loraine Beier","liliana97@gmail.com","01042 935480","Loraine  Beier","liliana97@gmail.com","01042 935480","","","","",NA
"Juliana Rohan","deborah_runte@yahoo.com","08004 161613","Juliana  Rohan","deborah_runte@yahoo.com","08004 161613","","","","",NA
"Wanda Kemmer","krystel.veum@yahoo.com","05007 419430","Wanda  Kemmer","krystel.veum@yahoo.com","05007 419430","","","","",NA
"Howell Stanton","aliza_steuber@yahoo.com","01024 265890","Howell  Stanton","aliza_steuber@yahoo.com","01024 265890","","","","",NA
"Teagan O'Conner","ethelyn_haag@hotmail.com","01183 078070","Teagan  O' Conner","ethelyn_haag@hotmail.com","01183 078070","","","","",NA
"Miss Lucinda Fay","vance94@gmail.com","01009 172850","Miss  Lucinda  Fay","vance94@gmail.com","01009 172850","","","","",NA
"Katharina Murazik PhD","alessandra62@yahoo.com","08170 710133","Katharina  Murazik  Ph D","alessandra62@yahoo.com","08170 710133","","","","",NA
"Tracey Hilpert","alisa_roberts79@gmail.com","08007 815139","Tracey  Hilpert","alisa_roberts79@gmail.com","08007 815139","","","","",NA
"Mariela Mohr","maya_runolfsdottir58@yahoo.com","01415 627939","Mariela  Mohr","maya_runolfsdottir58@yahoo.com","01415 627939","","","","",NA
"Maybelle Schumm","finn.beahan@yahoo.com","01486 493490","Maybelle  Schumm","finn.beahan@yahoo.com","01486 493490","","","","",NA
"Aletha Stark","keshawn_barrows@hotmail.com","08006 948580","Aletha  Stark","keshawn_barrows@hotmail.com","08006 948580","","","","",NA
"Oscar Berge","kenton_mueller@gmail.com","01034 055700","Oscar  Berge","kenton_mueller@gmail.com","01034 055700","","","","",NA
"Harold Murazik","earline.hane13@yahoo.com","05679 215475","Harold  Murazik","earline.hane13@yahoo.com","05679 215475","","","","",NA
"Tomasa Stanton","kali8@yahoo.com","08022 655477","Tomasa  Stanton","kali8@yahoo.com","08022 655477","","","","",NA
"Remington O'Connell","david83@gmail.com","01412 336268","Remington  O' Connell","david83@gmail.com","01412 336268","","","","",NA
"Valentina Torphy","alena.nienow94@yahoo.com","02231 033926","Valentina  Torphy","alena.nienow94@yahoo.com","02231 033926","","","","",NA
"Kellie Bashirian PhD","javonte20@yahoo.com","01610 891441","Kellie  Bashirian  Ph D","javonte20@yahoo.com","01610 891441","","","","",NA
"Carolyne Harris","emma_buckridge94@yahoo.com","08099 119613","Carolyne  Harris","emma_buckridge94@yahoo.com","08099 119613","","","","",NA
"Dessie Walter","hardy.schoen38@hotmail.com","01149 742898","Dessie  Walter","hardy.schoen38@hotmail.com","01149 742898","","","","",NA
"Pasquale Hessel","stephon92@hotmail.com","02282 425242","Pasquale  Hessel","stephon92@hotmail.com","02282 425242","","","","",NA
"Zetta Steuber","meaghan69@gmail.com","08001 891040","Zetta  Steuber","meaghan69@gmail.com","08001 891040","","","","",NA
"Hermina Bechtelar II","elfrieda_terry82@hotmail.com","03409 412270","Hermina  Bechtelar  I I","elfrieda_terry82@hotmail.com","03409 412270","","","","",NA
"Rosella Emard","otis66@hotmail.com","01133 445344","Rosella  Emard","otis66@hotmail.com","01133 445344","","","","",NA
"Ivy Barton","bradly64@hotmail.com","08905 737086","Ivy  Barton","bradly64@hotmail.com","08905 737086","","","","",NA
"Ellen Halvorson","lorna.bechtelar@yahoo.com","01106 622477","Ellen  Halvorson","lorna.bechtelar@yahoo.com","01106 622477","","","","",NA
"Cecilia Bashirian","celine.bechtelar@gmail.com","08453 882689","Cecilia  Bashirian","celine.bechtelar@gmail.com","08453 882689","","","","",NA
"Rigoberto Cole","lindsay.borer31@hotmail.com","05001 273180","Rigoberto  Cole","lindsay.borer31@hotmail.com","05001 273180","","","","",NA
"Mrs. Tavares Lind","percival.kling89@gmail.com","09798 483741","Mrs.  Tavares  Lind","percival.kling89@gmail.com","09798 483741","","","","",NA
"Margarete Pfeffer","rosalyn_steuber90@yahoo.com","01407 183031","Margarete  Pfeffer","rosalyn_steuber90@yahoo.com","01407 183031","","","","",NA
"Rubie Ledner","zachery.cormier41@gmail.com","03558 744718","Rubie  Ledner","zachery.cormier41@gmail.com","03558 744718","","","","",NA
"Jarvis MacGyver Jr.","myron48@yahoo.com","01186 859881","Jarvis  Mac Gyver  Jr.","myron48@yahoo.com","01186 859881","","","","",NA
"Elda Hickle","eleazar_smitham@gmail.com","08003 698530","Elda  Hickle","eleazar_smitham@gmail.com","08003 698530","","","","",NA
"Christopher Kerluke","edgardo.eichmann68@yahoo.com","03184 356736","Christopher  Kerluke","edgardo.eichmann68@yahoo.com","03184 356736","","","","",NA
"Teresa Von","della80@hotmail.com","05009 316340","Teresa  Von","della80@hotmail.com","05009 316340","","","","",NA
"Mollie Homenick","gage.morar57@gmail.com","01697 783560","Mollie  Homenick","gage.morar57@gmail.com","01697 783560","","","","",NA
"Neha Hilpert","ottis79@hotmail.com","09816 762895","Neha  Hilpert","ottis79@hotmail.com","09816 762895","","","","",NA
"Ms. Isaiah Kemmer","ambrose.west49@gmail.com","01312 641100","Ms.  Isaiah  Kemmer","ambrose.west49@gmail.com","01312 641100","","","","",NA
"Abigayle Bogan","berta.quitzon@hotmail.com","08008 073430","Abigayle  Bogan","berta.quitzon@hotmail.com","08008 073430","","","","",NA
"Dr. Elenora Bechtelar","davonte.ledner3@gmail.com","05647 343061","Dr.  Elenora  Bechtelar","davonte.ledner3@gmail.com","05647 343061","","","","",NA
"ChynaKreiger","adelia.corwin87@hotmail.com","08895 800861","Chyna Kreiger","adelia.corwin87@hotmail.com","08895 800861","[ ""B2"" ]","","","",NA
"Concepcion Purdy","anna.huel@gmail.com","01217 285072","Concepcion  Purdy","anna.huel@gmail.com","01217 285072","","","","",NA
"Mrs. Retha Pagac","emanuel.fisher@hotmail.com","01140 405393","Mrs.  Retha  Pagac","emanuel.fisher@hotmail.com","01140 405393","","","","",NA
"Bryce Kshlerin","cade75@yahoo.com","05009 206240","Bryce  Kshlerin","cade75@yahoo.com","05009 206240","","","","",NA
"Judd Klocko","maximo47@gmail.com","08007 104510","Judd  Klocko","maximo47@gmail.com","08007 104510","","","","",NA
"Jerod Shields DDS","jamey40@hotmail.com","01105 335317","Jerod  Shields  D D S","jamey40@hotmail.com","01105 335317","","","","",NA
"Herminia Terry","yolanda16@yahoo.com","03704 316617","Herminia  Terry","yolanda16@yahoo.com","03704 316617","","","","",NA
"Jarrell Stokes","shanelle.okeefe@hotmail.com","05674 001142","Jarrell  Stokes","shanelle.okeefe@hotmail.com","05674 001142","","","","",NA
"Cora McClure","ian.ebert83@hotmail.com","05582 852693","Cora  Mc Clure","ian.ebert83@hotmail.com","05582 852693","","","","",NA
"Alexanne Von","franz.funk@hotmail.com","01171 604322","Alexanne  Von","franz.funk@hotmail.com","01171 604322","","","","",NA
"Mekhi Cruickshank","josiah_toy88@hotmail.com","08009 490450","Mekhi  Cruickshank","josiah_toy88@hotmail.com","08009 490450","","","","",NA
"Ms. Gerald Hills","celine.turcotte@gmail.com","08005 598328","Ms.  Gerald  Hills","celine.turcotte@gmail.com","08005 598328","","","","",NA
"Lincoln Gleason III","emmett_gottlieb@gmail.com","05698 907789","Lincoln  Gleason  I I I","emmett_gottlieb@gmail.com","05698 907789","","","","",NA
"Aidan Hirthe","cecile.eichmann47@hotmail.com","01697 778350","Aidan  Hirthe","cecile.eichmann47@hotmail.com","01697 778350","","","","",NA
"Muhammad Mante","uriel_vandervort29@gmail.com","01158 439665","Muhammad  Mante","uriel_vandervort29@gmail.com","01158 439665","","","","",NA
"Mr. Annetta Morissette","karianne.nicolas50@hotmail.com","05009 398770","Mr.  Annetta  Morissette","karianne.nicolas50@hotmail.com","05009 398770","","","","",NA
"Gabe Jenkins","savanah8@gmail.com","08934 712525","Gabe  Jenkins","savanah8@gmail.com","08934 712525","","","","",NA
"Thurman Kling","davin.heaney58@gmail.com","05002 076870","Thurman  Kling","davin.heaney58@gmail.com","05002 076870","","","","",NA
"Zaria Schiller DVM","dennis_emmerich41@yahoo.com","01608 082869","Zaria  Schiller  D V M","dennis_emmerich41@yahoo.com","01608 082869","","","","",NA
"Ward Ferry","verda.schaden@gmail.com","01697 738800","Ward  Ferry","verda.schaden@gmail.com","01697 738800","","","","",NA
"Miss Catalina Fisher","gudrun.wiza65@hotmail.com","08008 127450","Miss  Catalina  Fisher","gudrun.wiza65@hotmail.com","08008 127450","","","","",NA
"Florence Schaefer","bernadine_bergnaum82@gmail.com","09931 882172","Florence  Schaefer","bernadine_bergnaum82@gmail.com","09931 882172","","","","",NA
"Bertram Brown","gregorio_emard@hotmail.com","01341 564470","Bertram  Brown","gregorio_emard@hotmail.com","01341 564470","","","","",NA
"Rolando Upton","gail.anderson@gmail.com","02200 038530","Rolando  Upton","gail.anderson@gmail.com","02200 038530","","","","",NA
"Anais Kreiger","gustave41@gmail.com","05563 527556","Anais  Kreiger","gustave41@gmail.com","05563 527556","","","","",NA
"Lavon Ullrich","cielo61@gmail.com","01100 838303","Lavon  Ullrich","cielo61@gmail.com","01100 838303","","","","",NA
"Dave Schneider","lafayette99@hotmail.com","01101 713742","Dave  Schneider","lafayette99@hotmail.com","01101 713742","","","","",NA
"Dr. Gardner Hyatt","marques.jacobs68@gmail.com","05693 559774","Dr.  Gardner  Hyatt","marques.jacobs68@gmail.com","05693 559774","","","","",NA
"Santos Kohler","elyssa_quitzon63@gmail.com","01914 981313","Santos  Kohler","elyssa_quitzon63@gmail.com","01914 981313","","","","",NA
"Fritz Ebert II","ottis_bruen92@yahoo.com","01181 309359","Fritz  Ebert  I I","ottis_bruen92@yahoo.com","01181 309359","","","","",NA
"Reanna Renner","kylie_metz@yahoo.com","09243 210905","Reanna  Renner","kylie_metz@yahoo.com","09243 210905","","","","",NA
"Dereck Ondricka","retta.lemke32@yahoo.com","05515 706950","Dereck  Ondricka","retta.lemke32@yahoo.com","05515 706950","","","","",NA
"Aniya Berge","rylan_koch@yahoo.com","01795 170450","Aniya  Berge","rylan_koch@yahoo.com","01795 170450","","","","",NA
"Malvina Spinka","marc_ohara@gmail.com","08009 183100","Malvina  Spinka","marc_ohara@gmail.com","08009 183100","","","","",NA
"Celestine Lemke","alayna.franecki@gmail.com","01719 452036","Celestine  Lemke","alayna.franecki@gmail.com","01719 452036","","","","",NA
"Maynard Klein","karine_rice11@hotmail.com","03320 136115","Maynard  Klein","karine_rice11@hotmail.com","03320 136115","","","","",NA
"Christ Dicki","alfonzo_nolan@gmail.com","08002 557330","Christ  Dicki","alfonzo_nolan@gmail.com","08002 557330","","","","",NA
"Agnes Osinski","arturo54@gmail.com","01810 408004","Agnes  Osinski","arturo54@gmail.com","01810 408004","","","","",NA
"Percival Schmitt","newton.mann68@gmail.com","05006 203800","Percival  Schmitt","newton.mann68@gmail.com","05006 203800","","","","",NA
"Rosetta Green","ena_barton@gmail.com","03553 414573","Rosetta  Green","ena_barton@gmail.com","03553 414573","","","","",NA
"Garfield Quigley","quinn_mclaughlin@yahoo.com","05632 416832","Garfield  Quigley","quinn_mclaughlin@yahoo.com","05632 416832","","","","",NA
"Elfrieda Wisoky MD","penelope4@gmail.com","01331 777153","Elfrieda  Wisoky  M D","penelope4@gmail.com","01331 777153","","","","",NA
"Sienna Spinka","lue_hintz25@hotmail.com","01578 723758","Sienna  Spinka","lue_hintz25@hotmail.com","01578 723758","","","","",NA
"Guido Legros III","issac_spinka@hotmail.com","02459 663637","Guido  Legros  I I I","issac_spinka@hotmail.com","02459 663637","","","","",NA
"Sage Christiansen","kurt_bernhard74@gmail.com","01119 985736","Sage  Christiansen","kurt_bernhard74@gmail.com","01119 985736","","","","",NA
"Angus Bartell II","adeline46@yahoo.com","08001 138942","Angus  Bartell  I I","adeline46@yahoo.com","08001 138942","","","","",NA
"Luna Boehm","yesenia49@hotmail.com","01395 814080","Luna  Boehm","yesenia49@hotmail.com","01395 814080","","","","",NA
"Luis Feeney","lewis76@hotmail.com","08003 154740","Luis  Feeney","lewis76@hotmail.com","08003 154740","","","","",NA
"Jonathon Heathcote Jr.","pattie_schowalter44@hotmail.com","08182 514620","Jonathon  Heathcote  Jr.","pattie_schowalter44@hotmail.com","08182 514620","","","","",NA
"Noah Jacobi","pete_johns@gmail.com","03716 272167","Noah  Jacobi","pete_johns@gmail.com","03716 272167","","","","",NA
"Mabelle Davis","ressie93@hotmail.com","01182 979843","Mabelle  Davis","ressie93@hotmail.com","01182 979843","","","","",NA
"Aliya Brakus","fausto75@yahoo.com","08643 025271","Aliya  Brakus","fausto75@yahoo.com","08643 025271","","","","",NA
"Destini Harris","sydnee.walter91@hotmail.com","08007 667589","Destini  Harris","sydnee.walter91@hotmail.com","08007 667589","","","","",NA
"Jude Conn","destinee_lemke46@yahoo.com","05666 077462","Jude  Conn","destinee_lemke46@yahoo.com","05666 077462","","","","",NA
"Jazmin Schaefer","ignacio_king@yahoo.com","01914 258841","Jazmin  Schaefer","ignacio_king@yahoo.com","01914 258841","","","","",NA
"Isobel Purdy","kip_bergstrom11@gmail.com","09336 657301","Isobel  Purdy","kip_bergstrom11@gmail.com","09336 657301","","","","",NA
"Sedrick Hermiston","brock_bernier@gmail.com","08694 361858","Sedrick  Hermiston","brock_bernier@gmail.com","08694 361858","","","","",NA
"Carlotta Romaguera","isabell_oconnell@yahoo.com","08001 828290","Carlotta  Romaguera","isabell_oconnell@yahoo.com","08001 828290","","","","",NA
"Armand Johnston","hanna25@hotmail.com","03929 113483","Armand  Johnston","hanna25@hotmail.com","03929 113483","","","","",NA
"Roxane Walsh","zackary_heathcote@gmail.com","01911 556698","Roxane  Walsh","zackary_heathcote@gmail.com","01911 556698","","","","",NA
"Dr. Eloisa Ward","claud.kling83@yahoo.com","05509 184989","Dr.  Eloisa  Ward","claud.kling83@yahoo.com","05509 184989","","","","",NA
"Mr. Ana O'Keefe","gordon18@hotmail.com","01357 541870","Mr.  Ana  O' Keefe","gordon18@hotmail.com","01357 541870","","","","",NA
"Mozelle Ondricka","isabell_moore46@yahoo.com","08005 213950","Mozelle  Ondricka","isabell_moore46@yahoo.com","08005 213950","","","","",NA
"Kelly Hoppe","eugenia.pagac65@yahoo.com","09136 249386","Kelly  Hoppe","eugenia.pagac65@yahoo.com","09136 249386","","","","",NA
"Lessie Cassin","bethel_cremin37@yahoo.com","08697 542223","Lessie  Cassin","bethel_cremin37@yahoo.com","08697 542223","","","","",NA
"Ralph Hilpert","claire_ankunding@hotmail.com","08006 499510","Ralph  Hilpert","claire_ankunding@hotmail.com","08006 499510","","","","",NA
"Genevieve Von","elda.runolfsson14@gmail.com","01175 257158","Genevieve  Von","elda.runolfsson14@gmail.com","01175 257158","","","","",NA
"Paris Vandervort","ezequiel.brown@hotmail.com","01356 410294","Paris  Vandervort","ezequiel.brown@hotmail.com","01356 410294","","","","",NA
"Telly Runolfsdottir","shayne_rippin@yahoo.com","01012 540201","Telly  Runolfsdottir","shayne_rippin@yahoo.com","01012 540201","","","","",NA
"Isom Mosciski IV","ardella.reichel@yahoo.com","01148 514871","Isom  Mosciski  I V","ardella.reichel@yahoo.com","01148 514871","","","","",NA
"Efren McGlynn","finn4@gmail.com","05573 123184","Efren  Mc Glynn","finn4@gmail.com","05573 123184","","","","",NA
"Gregg Durgan MD","talia_koepp@yahoo.com","08863 428771","Gregg  Durgan  M D","talia_koepp@yahoo.com","08863 428771","","","","",NA
"Kyla Gorczany","verona.thompson36@yahoo.com","01697 777770","Kyla  Gorczany","verona.thompson36@yahoo.com","01697 777770","","","","",NA
"Chelsie Hettinger","bernhard_klein58@gmail.com","01131 731885","Chelsie  Hettinger","bernhard_klein58@gmail.com","01131 731885","","","","",NA
"Dorothy Steuber","misael.steuber@gmail.com","01127 701321","Dorothy  Steuber","misael.steuber@gmail.com","01127 701321","","","","",NA
"Kenyon Dare","presley.white@gmail.com","01116 339900","Kenyon  Dare","presley.white@gmail.com","01116 339900","","","","",NA
"Fabiola Turner","queen83@yahoo.com","01141 728647","Fabiola  Turner","queen83@yahoo.com","01141 728647","","","","",NA
"Oscar Brekke","brody.leannon84@hotmail.com","03188 795226","Oscar  Brekke","brody.leannon84@hotmail.com","03188 795226","","","","",NA
"Kip Jacobson","erna43@yahoo.com","01328 466171","Kip  Jacobson","erna43@yahoo.com","01328 466171","","","","",NA
"Bradley Gibson","mitchell0@yahoo.com","08813 643630","Bradley  Gibson","mitchell0@yahoo.com","08813 643630","","","","",NA
"Alexandro Reinger","johathan.turcotte18@hotmail.com","05572 219022","Alexandro  Reinger","johathan.turcotte18@hotmail.com","05572 219022","","","","",NA
"Angelita Schuster","jana.hackett39@hotmail.com","01397 587431","Angelita  Schuster","jana.hackett39@hotmail.com","01397 587431","","","","",NA
"Jennings Luettgen DVM","cheyenne_boyer13@hotmail.com","09166 758835","Jennings  Luettgen  D V M","cheyenne_boyer13@hotmail.com","09166 758835","","","","",NA
"Cloyd Huel","august23@hotmail.com","01316 989513","Cloyd  Huel","august23@hotmail.com","01316 989513","","","","",NA
"Mya Carter","darien93@hotmail.com","01112 275333","Mya  Carter","darien93@hotmail.com","01112 275333","","","","",NA
"Wilmer Morar","adelia2@yahoo.com","01652 581140","Wilmer  Morar","adelia2@yahoo.com","01652 581140","","","","",NA
"Karl Haag","jacky.windler@hotmail.com","01710 605568","Karl  Haag","jacky.windler@hotmail.com","01710 605568","","","","",NA
"Ayla Ryan","joan.beahan36@yahoo.com","01733 132476","Ayla  Ryan","joan.beahan36@yahoo.com","01733 132476","","","","",NA
"Miss Kelly Lesch","elouise.schumm@yahoo.com","01862 639170","Miss  Kelly  Lesch","elouise.schumm@yahoo.com","01862 639170","","","","",NA
"David Bradtke","dawn_funk@yahoo.com","01697 755690","David  Bradtke","dawn_funk@yahoo.com","01697 755690","","","","",NA
"Mariah King","jennifer_keeling@hotmail.com","02110 675858","Mariah  King","jennifer_keeling@hotmail.com","02110 675858","","","","",NA
"Pierre Ondricka","brannon17@gmail.com","03321 115604","Pierre  Ondricka","brannon17@gmail.com","03321 115604","","","","",NA
"Breanna Grady","tina_kilback@hotmail.com","05657 458278","Breanna  Grady","tina_kilback@hotmail.com","05657 458278","","","","",NA
"John O'Kon","alejandra_murphy@yahoo.com","09470 640925","John  O' Kon","alejandra_murphy@yahoo.com","09470 640925","","","","",NA
"Ella Abernathy","erik48@hotmail.com","01191 022279","Ella  Abernathy","erik48@hotmail.com","01191 022279","","","","",NA
"Delta Pfannerstill","marjory.tremblay79@hotmail.com","03737 650184","Delta  Pfannerstill","marjory.tremblay79@hotmail.com","03737 650184","","","","",NA
"Chadrick Friesen","claude.kozey@yahoo.com","01505 601420","Chadrick  Friesen","claude.kozey@yahoo.com","01505 601420","","","","",NA
"Mr. Lawson Mohr","armand_oconnell31@hotmail.com","05637 196405","Mr.  Lawson  Mohr","armand_oconnell31@hotmail.com","05637 196405","","","","",NA
"Tito Casper","ashtyn92@yahoo.com","02751 930758","Tito  Casper","ashtyn92@yahoo.com","02751 930758","","","","",NA
"Katheryn Turcotte","angelina.reynolds@hotmail.com","01138 789626","Katheryn  Turcotte","angelina.reynolds@hotmail.com","01138 789626","","","","",NA
"Albert Adams IV","jeffry96@yahoo.com","08004 892593","Albert  Adams  I V","jeffry96@yahoo.com","08004 892593","","","","",NA
"Kassandra Hagenes","arjun.feil20@gmail.com","02602 202981","Kassandra  Hagenes","arjun.feil20@gmail.com","02602 202981","","","","",NA
"Theresia Tremblay","aidan.mosciski@hotmail.com","05643 302147","Theresia  Tremblay","aidan.mosciski@hotmail.com","05643 302147","","","","",NA
"Halle Weimann","darby_hermiston68@yahoo.com","08269 542128","Halle  Weimann","darby_hermiston68@yahoo.com","08269 542128","","","","",NA
"Seamus Kautzer","doyle23@yahoo.com","01185 430549","Seamus  Kautzer","doyle23@yahoo.com","01185 430549","","","","",NA
"Shyann Thompson","levi.leuschke62@gmail.com","01445 988633","Shyann  Thompson","levi.leuschke62@gmail.com","01445 988633","","","","",NA
"Janessa Ruecker","giles79@yahoo.com","05009 491200","Janessa  Ruecker","giles79@yahoo.com","05009 491200","","","","",NA
"Ms. Geovany Rohan","destini.zemlak@hotmail.com","02376 261907","Ms.  Geovany  Rohan","destini.zemlak@hotmail.com","02376 261907","","","","",NA
"Ms. Velma Hartmann","jacynthe25@gmail.com","01213 522989","Ms.  Velma  Hartmann","jacynthe25@gmail.com","01213 522989","","","","",NA
"Martine Hartmann","lea_mante34@gmail.com","05007 428120","Martine  Hartmann","lea_mante34@gmail.com","05007 428120","","","","",NA
"Miss Emmalee Reichel","rene99@gmail.com","02214 454027","Miss  Emmalee  Reichel","rene99@gmail.com","02214 454027","","","","",NA
"Alvina Huel MD","mathias69@yahoo.com","08781 392379","Alvina  Huel  M D","mathias69@yahoo.com","08781 392379","","","","",NA
"Wyman Corkery","delfina.zieme@hotmail.com","03227 771596","Wyman  Corkery","delfina.zieme@hotmail.com","03227 771596","","","","",NA
"Candace Schroeder Jr.","noah.mckenzie9@gmail.com","01016 738024","Candace  Schroeder  Jr.","noah.mckenzie9@gmail.com","01016 738024","","","","",NA
"Miss Axel Bergnaum","everett.bartoletti@yahoo.com","08006 417350","Miss  Axel  Bergnaum","everett.bartoletti@yahoo.com","08006 417350","","","","",NA
"Arnoldo Thompson DDS","fannie_boyle@gmail.com","08007 466410","Arnoldo  Thompson  D D S","fannie_boyle@gmail.com","08007 466410","","","","",NA
"Willa Miller","weldon32@yahoo.com","01697 768940","Willa  Miller","weldon32@yahoo.com","01697 768940","","","","",NA
"Thora Thompson","cheyanne.bogisich43@yahoo.com","05001 316830","Thora  Thompson","cheyanne.bogisich43@yahoo.com","05001 316830","","","","",NA
"Ayden Bruen Sr.","jacey63@yahoo.com","01697 745680","Ayden  Bruen  Sr.","jacey63@yahoo.com","01697 745680","","","","",NA
"Maynard Dietrich","althea.mohr@hotmail.com","05002 165240","Maynard  Dietrich","althea.mohr@hotmail.com","05002 165240","","","","",NA
"Afton Greenholt","arianna92@gmail.com","01911 137592","Afton  Greenholt","arianna92@gmail.com","01911 137592","","","","",NA
"Ashtyn Tremblay","lupe.hyatt@hotmail.com","05554 443003","Ashtyn  Tremblay","lupe.hyatt@hotmail.com","05554 443003","","","","",NA
"Josephine Gleichner","pearlie81@yahoo.com","02668 306314","Josephine  Gleichner","pearlie81@yahoo.com","02668 306314","","","","",NA
"Doug Wintheiser MD","pablo_brekke@gmail.com","03385 475689","Doug  Wintheiser  M D","pablo_brekke@gmail.com","03385 475689","","","","",NA
"Elna Beatty Sr.","aubree94@hotmail.com","08009 811630","Elna  Beatty  Sr.","aubree94@hotmail.com","08009 811630","","","","",NA
"Mina DuBuque","elvie80@hotmail.com","05567 992215","Mina  Du Buque","elvie80@hotmail.com","05567 992215","","","","",NA
"Melvin Schiller","hoyt27@yahoo.com","05693 158404","Melvin  Schiller","hoyt27@yahoo.com","05693 158404","","","","",NA
"Burdette Bernier","felix_oconnell18@hotmail.com","09783 953176","Burdette  Bernier","felix_oconnell18@hotmail.com","09783 953176","","","","",NA
"Lauriane Sauer","evelyn.runolfsson@gmail.com","05004 543050","Lauriane  Sauer","evelyn.runolfsson@gmail.com","05004 543050","","","","",NA
"Maxwell Hodkiewicz","mariam_roob1@hotmail.com","01274 472517","Maxwell  Hodkiewicz","mariam_roob1@hotmail.com","01274 472517","","","","",NA
"Melissa Leffler","jaquelin.keeling@gmail.com","01511 171929","Melissa  Leffler","jaquelin.keeling@gmail.com","01511 171929","","","","",NA
"Humberto Stoltenberg","lisandro_stracke@yahoo.com","08002 039890","Humberto  Stoltenberg","lisandro_stracke@yahoo.com","08002 039890","","","","",NA
"Raphael Keeling","leila44@hotmail.com","08006 203100","Raphael  Keeling","leila44@hotmail.com","08006 203100","","","","",NA
"Kasandra Kiehn","juanita_barrows69@hotmail.com","09089 196438","Kasandra  Kiehn","juanita_barrows69@hotmail.com","09089 196438","","","","",NA
"Samanta Johnson","columbus.kautzer38@yahoo.com","05520 229415","Samanta  Johnson","columbus.kautzer38@yahoo.com","05520 229415","","","","",NA
"Reid Mertz","roma.champlin87@hotmail.com","08017 550038","Reid  Mertz","roma.champlin87@hotmail.com","08017 550038","","","","",NA
"Prince Lubowitz","jamir.rice@yahoo.com","08007 465331","Prince  Lubowitz","jamir.rice@yahoo.com","08007 465331","","","","",NA
"Ellis Watsica","ruthie_lindgren@gmail.com","05006 029310","Ellis  Watsica","ruthie_lindgren@gmail.com","05006 029310","","","","",NA
"Greyson Price","kian29@hotmail.com","02484 140227","Greyson  Price","kian29@hotmail.com","02484 140227","","","","",NA
"Ariel Grant","brenna_orn86@hotmail.com","09366 452247","Ariel  Grant","brenna_orn86@hotmail.com","09366 452247","","","","",NA
"Courtney Heller","johnpaul.weber@hotmail.com","01697 727940","Courtney  Heller","johnpaul.weber@hotmail.com","01697 727940","","","","",NA
"Aurelia Dicki","lukas.smitham36@hotmail.com","01112 318890","Aurelia  Dicki","lukas.smitham36@hotmail.com","01112 318890","","","","",NA
"Ernestine Kertzmann","cristopher_nikolaus52@gmail.com","03919 555847","Ernestine  Kertzmann","cristopher_nikolaus52@gmail.com","03919 555847","","","","",NA
"Yessenia Howell III","euna46@hotmail.com","01145 933871","Yessenia  Howell  I I I","euna46@hotmail.com","01145 933871","","","","",NA
"Joesph Moen","dolly.harris91@yahoo.com","01868 425920","Joesph  Moen","dolly.harris91@yahoo.com","01868 425920","","","","",NA
"Lura Maggio","brennan16@hotmail.com","05594 503093","Lura  Maggio","brennan16@hotmail.com","05594 503093","","","","",NA
"Deshawn Predovic","joshuah.koelpin26@hotmail.com","01113 439768","Deshawn  Predovic","joshuah.koelpin26@hotmail.com","01113 439768","","","","",NA
"Bobby Hills","sandrine.yost33@gmail.com","08541 090455","Bobby  Hills","sandrine.yost33@gmail.com","08541 090455","","","","",NA
"Zachariah Stokes","rupert_witting@gmail.com","01697 774860","Zachariah  Stokes","rupert_witting@gmail.com","01697 774860","","","","",NA
"Jerel Fay","malika.boyer6@gmail.com","08003 761879","Jerel  Fay","malika.boyer6@gmail.com","08003 761879","","","","",NA
"rhoda mcLaughlin","fanny.volkman@yahoo.com","01519 560845","Rhoda  Mc Laughlin","fanny.volkman@yahoo.com","01519 560845","[ ""B3"" ]","","","",NA
"Xander Mohr","sabryna_hackett@gmail.com","01722 929870","Xander  Mohr","sabryna_hackett@gmail.com","01722 929870","","","","",NA
"Mrs. Fatima Funk","eldon11@gmail.com","08496 550875","Mrs.  Fatima  Funk","eldon11@gmail.com","08496 550875","","","","",NA
"Chaya Little","dexter_davis35@gmail.com","08009 396360","Chaya  Little","dexter_davis35@gmail.com","08009 396360","","","","",NA
"Adriel Kub","giovanni_kozey@gmail.com","01139 478735","Adriel  Kub","giovanni_kozey@gmail.com","01139 478735","","","","",NA
"Deondre Orn","koby28@hotmail.com","09174 008774","Deondre  Orn","koby28@hotmail.com","09174 008774","","","","",NA
"Aurelie Durgan","hallie45@hotmail.com","08007 535736","Aurelie  Durgan","hallie45@hotmail.com","08007 535736","","","","",NA
"Ward Gerhold","loma81@yahoo.com","01284 454117","Ward  Gerhold","loma81@yahoo.com","01284 454117","","","","",NA
"Hermina O'Kon","colleen_braun55@gmail.com","05607 397614","Hermina  O' Kon","colleen_braun55@gmail.com","05607 397614","","","","",NA
"Scot Rippin","sophie.dooley65@hotmail.com","01514 369895","Scot  Rippin","sophie.dooley65@hotmail.com","01514 369895","","","","",NA
"Jolie Wilkinson","saige.sporer17@yahoo.com","01119 620092","Jolie  Wilkinson","saige.sporer17@yahoo.com","01119 620092","","","","",NA
"Barry Okuneva","sierra_dicki78@gmail.com","09938 283816","Barry  Okuneva","sierra_dicki78@gmail.com","09938 283816","","","","",NA
"Arch Kuvalis","priscilla37@yahoo.com","09429 043411","Arch  Kuvalis","priscilla37@yahoo.com","09429 043411","","","","",NA
"Mae Hayes","dorian_sanford@yahoo.com","02280 977178","Mae  Hayes","dorian_sanford@yahoo.com","02280 977178","","","","",NA
"Ms. Serena Grant","kenneth.rowe11@yahoo.com","01682 737844","Ms.  Serena  Grant","kenneth.rowe11@yahoo.com","01682 737844","","","","",NA
"Lois Frami","marlene_crona@yahoo.com","01861 561682","Lois  Frami","marlene_crona@yahoo.com","01861 561682","","","","",NA
"Norwood Rutherford","macy.ziemann77@gmail.com","01195 822705","Norwood  Rutherford","macy.ziemann77@gmail.com","01195 822705","","","","",NA
"Ralph Shields","cynthia83@hotmail.com","01172 546715","Ralph  Shields","cynthia83@hotmail.com","01172 546715","","","","",NA
"Cali Crooks","tavares_renner55@hotmail.com","08006 070340","Cali  Crooks","tavares_renner55@hotmail.com","08006 070340","","","","",NA
"Jailyn Okuneva","brandon_ruecker@gmail.com","08007 319426","Jailyn  Okuneva","brandon_ruecker@gmail.com","08007 319426","","","","",NA
"Meda Conroy","meghan36@hotmail.com","05527 922936","Meda  Conroy","meghan36@hotmail.com","05527 922936","","","","",NA
"Roscoe Nienow","abe.nolan86@gmail.com","03229 433432","Roscoe  Nienow","abe.nolan86@gmail.com","03229 433432","","","","",NA
"Mathilde Walter","syble.dickens@yahoo.com","01154 708252","Mathilde  Walter","syble.dickens@yahoo.com","01154 708252","","","","",NA
"Alyson Buckridge","savion_marquardt2@gmail.com","01845 960812","Alyson  Buckridge","savion_marquardt2@gmail.com","01845 960812","","","","",NA
"Dr. Zula Torp","queenie_wisoky@yahoo.com","08008 313830","Dr.  Zula  Torp","queenie_wisoky@yahoo.com","08008 313830","","","","",NA
"Samir Bednar","telly11@gmail.com","01415 400063","Samir  Bednar","telly11@gmail.com","01415 400063","","","","",NA
"Osbaldo Marquardt","drew30@hotmail.com","08000 800640","Osbaldo  Marquardt","drew30@hotmail.com","08000 800640","","","","",NA
"Ms. Mara Blanda","miller.stark10@gmail.com","01697 720430","Ms.  Mara  Blanda","miller.stark10@gmail.com","01697 720430","","","","",NA
"Georgiana Windler","kariane7@hotmail.com","08333 891092","Georgiana  Windler","kariane7@hotmail.com","08333 891092","","","","",NA
"Jett Gorczany Jr.","karley_armstrong@yahoo.com","08008 208134","Jett  Gorczany  Jr.","karley_armstrong@yahoo.com","08008 208134","","","","",NA
"Madisen Rolfson","aileen_nitzsche75@gmail.com","01886 699617","Madisen  Rolfson","aileen_nitzsche75@gmail.com","01886 699617","","","","",NA
"Faustino Strosin","lawrence.lynch74@yahoo.com","03999 080916","Faustino  Strosin","lawrence.lynch74@yahoo.com","03999 080916","","","","",NA
"Shanel Ankunding","lydia.jacobs@yahoo.com","08007 072420","Shanel  Ankunding","lydia.jacobs@yahoo.com","08007 072420","","","","",NA
"Ms. Rosamond Buckridge","joshua.johnston95@hotmail.com","01196 144340","Ms.  Rosamond  Buckridge","joshua.johnston95@hotmail.com","01196 144340","","","","",NA
"Avis Connelly","kamille.hessel@hotmail.com","01714 726262","Avis  Connelly","kamille.hessel@hotmail.com","01714 726262","","","","",NA
"Emelia Price","toney23@yahoo.com","09628 342094","Emelia  Price","toney23@yahoo.com","09628 342094","","","","",NA
"Dallas Kling","julianne.aufderhar@gmail.com","05002 053370","Dallas  Kling","julianne.aufderhar@gmail.com","05002 053370","","","","",NA
"Mrs. Tianna McGlynn","autumn14@yahoo.com","01833 177120","Mrs.  Tianna  Mc Glynn","autumn14@yahoo.com","01833 177120","","","","",NA
"Eleanore Kilback","destin57@gmail.com","01928 746997","Eleanore  Kilback","destin57@gmail.com","01928 746997","","","","",NA
"Jamil Waelchi","herminia31@yahoo.com","08175 962310","Jamil  Waelchi","herminia31@yahoo.com","08175 962310","","","","",NA
"Darron Jones","camille.spencer@hotmail.com","03087 828486","Darron  Jones","camille.spencer@hotmail.com","03087 828486","","","","",NA
"Frida Hayes","elisa_bosco@gmail.com","02366 348412","Frida  Hayes","elisa_bosco@gmail.com","02366 348412","","","","",NA
".","bonita_ryan28@hotmail.com","08889 853861",".","bonita_ryan28@hotmail.com","08889 853861","[ ""B3"", ""B2"", ""B5"" ]","TRUE","","",NA
"Emile Tremblay","elise.kilback84@gmail.com","02590 662723","Emile  Tremblay","elise.kilback84@gmail.com","02590 662723","","","","",NA
"Sebastian Frami","virginia_bogisich20@yahoo.com","05007 173480","Sebastian  Frami","virginia_bogisich20@yahoo.com","05007 173480","","","","",NA
"Guy Reilly Sr.","helen83@gmail.com","01696 164855","Guy  Reilly  Sr.","helen83@gmail.com","01696 164855","","","","",NA
"Ephraim Strosin","madisyn94@yahoo.com","01257 853989","Ephraim  Strosin","madisyn94@yahoo.com","01257 853989","","","","",NA
"Sean Ruecker","johnny26@hotmail.com","03789 069556","Sean  Ruecker","johnny26@hotmail.com","03789 069556","","","","",NA
"Evans Gulgowski","aniya_sipes41@yahoo.com","08006 448160","Evans  Gulgowski","aniya_sipes41@yahoo.com","08006 448160","","","","",NA
"Kaley Harris","marty5@yahoo.com","01130 540056","Kaley  Harris","marty5@yahoo.com","01130 540056","","","","",NA
"Noelia Will","maximus_goldner13@hotmail.com","05646 927001","Noelia  Will","maximus_goldner13@hotmail.com","05646 927001","","","","",NA
"Roberto Windler","marina.balistreri@hotmail.com","05513 068270","Roberto  Windler","marina.balistreri@hotmail.com","05513 068270","","","","",NA
"Alfredo Kihn","allison24@hotmail.com","01067 086072","Alfredo  Kihn","allison24@hotmail.com","01067 086072","","","","",NA
"Kelsi Schimmel","gerald.sipes39@hotmail.com","08009 978130","Kelsi  Schimmel","gerald.sipes39@hotmail.com","08009 978130","","","","",NA
"Dr. Russ Strosin","gordon93@hotmail.com","01100 581162","Dr.  Russ  Strosin","gordon93@hotmail.com","01100 581162","","","","",NA
"America Schuppe","vanessa.larson12@gmail.com","01107 744000","America  Schuppe","vanessa.larson12@gmail.com","01107 744000","","","","",NA
"Hilma Ullrich","madelynn91@gmail.com","08001 890380","Hilma  Ullrich","madelynn91@gmail.com","08001 890380","","","","",NA
"Henriette Batz","tyrell48@hotmail.com","09397 304478","Henriette  Batz","tyrell48@hotmail.com","09397 304478","","","","",NA
"Linwood Bernhard","barbara47@gmail.com","01445 923429","Linwood  Bernhard","barbara47@gmail.com","01445 923429","","","","",NA
"Kelley Schneider","katelin63@gmail.com","08004 715140","Kelley  Schneider","katelin63@gmail.com","08004 715140","","","","",NA
"Kariane Rippin","lillie90@gmail.com","09714 275119","Kariane  Rippin","lillie90@gmail.com","09714 275119","","","","",NA
"Darius Hahn","george_ferry32@hotmail.com","05689 177232","Darius  Hahn","george_ferry32@hotmail.com","05689 177232","","","","",NA
"Deangelo Baumbach","viola.mcdermott@hotmail.com","08265 674307","Deangelo  Baumbach","viola.mcdermott@hotmail.com","08265 674307","","","","",NA
"Mr. Nickolas Kreiger","cade.mccullough23@gmail.com","05652 320483","Mr.  Nickolas  Kreiger","cade.mccullough23@gmail.com","05652 320483","","","","",NA
"Franco Fritsch","krystina_sanford93@yahoo.com","01131 139048","Franco  Fritsch","krystina_sanford93@yahoo.com","01131 139048","","","","",NA
"Pablo Torp","adele.sporer@gmail.com","08491 188269","Pablo  Torp","adele.sporer@gmail.com","08491 188269","","","","",NA
"Jermey Douglas","janelle35@yahoo.com","09818 593633","Jermey  Douglas","janelle35@yahoo.com","09818 593633","","","","",NA
"Fletcher Bode","trystan.rowe55@gmail.com","01697 728240","Fletcher  Bode","trystan.rowe55@gmail.com","01697 728240","","","","",NA
"Rahsaan Shields","raymundo90@gmail.com","01169 032770","Rahsaan  Shields","raymundo90@gmail.com","01169 032770","","","","",NA
"Jake Waters","garret_dietrich21@hotmail.com","03903 313828","Jake  Waters","garret_dietrich21@hotmail.com","03903 313828","","","","",NA
"Dr. Carmel Hintz","moriah_west@gmail.com","08003 602470","Dr.  Carmel  Hintz","moriah_west@gmail.com","08003 602470","","","","",NA
"Baron Halvorson","salma_koch@gmail.com","01110 364581","Baron  Halvorson","salma_koch@gmail.com","01110 364581","","","","",NA
"Carey Graham","letitia_considine81@yahoo.com","01697 789450","Carey  Graham","letitia_considine81@yahoo.com","01697 789450","","","","",NA
"Gilberto Adams","stacy_runolfsson@hotmail.com","02268 530161","Gilberto  Adams","stacy_runolfsson@hotmail.com","02268 530161","","","","",NA
"Casper Schinner","wilhelmine30@yahoo.com","05002 327290","Casper  Schinner","wilhelmine30@yahoo.com","05002 327290","","","","",NA
"Ricky King","caleb_altenwerth@gmail.com","05636 356654","Ricky  King","caleb_altenwerth@gmail.com","05636 356654","","","","",NA
"Ms. Keegan Hermann","francesco_krajcik@gmail.com","08059 787379","Ms.  Keegan  Hermann","francesco_krajcik@gmail.com","08059 787379","","","","",NA
"Cordell Wolf","greg72@hotmail.com","01251 850151","Cordell  Wolf","greg72@hotmail.com","01251 850151","","","","",NA
"Pearlie63@hotmail.com","Erin Kiehn","01697 779350","Pearlie63@hotmail.com","erinkiehn","01697 779350","[ ""B2"", ""B4"", ""A1"", ""A2"" ]","","TRUE","",NA
"Faye Ernser MD","natalia.cremin84@gmail.com","01142 392147","Faye  Ernser  M D","natalia.cremin84@gmail.com","01142 392147","","","","",NA
"Samanta Block","luigi.lehner6@hotmail.com","01110 591253","Samanta  Block","luigi.lehner6@hotmail.com","01110 591253","","","","",NA
"Cassie Heidenreich","augustus.gottlieb@hotmail.com","01697 780650","Cassie  Heidenreich","augustus.gottlieb@hotmail.com","01697 780650","","","","",NA
"Breanne Gerlach","verla_wilkinson48@yahoo.com","01697 735390","Breanne  Gerlach","verla_wilkinson48@yahoo.com","01697 735390","","","","",NA
"Stuart Wehner","dessie_ernser79@yahoo.com","01697 701800","Stuart  Wehner","dessie_ernser79@yahoo.com","01697 701800","","","","",NA
"Miss Abdiel Stracke","isabel.marquardt@gmail.com","01528 715740","Miss  Abdiel  Stracke","isabel.marquardt@gmail.com","01528 715740","","","","",NA
"Mariane Predovic","icie_kunze84@yahoo.com","09218 267595","Mariane  Predovic","icie_kunze84@yahoo.com","09218 267595","","","","",NA
"Maximilian Casper","sonia22@gmail.com","01697 730300","Maximilian  Casper","sonia22@gmail.com","01697 730300","","","","",NA
"Molly Ziemann","keaton.steuber@hotmail.com","01697 772210","Molly  Ziemann","keaton.steuber@hotmail.com","01697 772210","","","","",NA
"Dudley Williamson","nat12@gmail.com","08007 027910","Dudley  Williamson","nat12@gmail.com","08007 027910","","","","",NA
"Enrique Quigley","alda.keebler83@yahoo.com","01016 881618","Enrique  Quigley","alda.keebler83@yahoo.com","01016 881618","","","","",NA
"Alberto Von","santos.hessel5@gmail.com","02925 778281","Alberto  Von","santos.hessel5@gmail.com","02925 778281","","","","",NA
"Estefania Kreiger","annabell_powlowski87@hotmail.com","01167 784325","Estefania  Kreiger","annabell_powlowski87@hotmail.com","01167 784325","","","","",NA
"Audrey Pagac","kitty39@gmail.com","08000 145373","Audrey  Pagac","kitty39@gmail.com","08000 145373","","","","",NA
"Mitchell Gislason","raul92@hotmail.com","02535 254736","Mitchell  Gislason","raul92@hotmail.com","02535 254736","","","","",NA
"Lilian Oberbrunner","warren_kirlin38@gmail.com","01116 432367","Lilian  Oberbrunner","warren_kirlin38@gmail.com","01116 432367","","","","",NA
"Milton Schaefer","jared_orn54@yahoo.com","05599 697224","Milton  Schaefer","jared_orn54@yahoo.com","05599 697224","","","","",NA
"Lucienne Smitham","alexis_effertz57@hotmail.com","01497 591370","Lucienne  Smitham","alexis_effertz57@hotmail.com","01497 591370","","","","",NA
"Philip Kilback","gunnar.mayer4@gmail.com","08742 361464","Philip  Kilback","gunnar.mayer4@gmail.com","08742 361464","","","","",NA
"Loy Rosenbaum","troy8@yahoo.com","05535 998365","Loy  Rosenbaum","troy8@yahoo.com","05535 998365","","","","",NA
"Judy Kling","enoch.reichel18@hotmail.com","01772 137498","Judy  Kling","enoch.reichel18@hotmail.com","01772 137498","","","","",NA
"Crystel Ziemann","clementina66@yahoo.com","01697 765070","Crystel  Ziemann","clementina66@yahoo.com","01697 765070","","","","",NA
"Rod Schumm","ivory.pagac@hotmail.com","01710 635080","Rod  Schumm","ivory.pagac@hotmail.com","01710 635080","","","","",NA
"Mr. Orie Lind","Sainsbury's is the second largest chain of supermarkets in the United Kingdom,[2] with a 16.9% share of the UK supermarket sector.[3] Founded in 1869, by John James Sainsbury with a shop in Drury Lane, London, the company became the largest grocery retailer in 1922, was an early adopter of self-service retailing in the UK, and had its heyday during the 1980s. In 1995, Tesco overtook Sainsbury's to become the market leader, and Asda became the second largest in 2003, demoting Sainsbury's to third place for most of the subsequent period until 2014, when Sainsbury's regained second place.[4] The holding company, J Sainsbury plc, is split into three divisions: Sainsbury's Supermarkets Ltd (including convenience stores), Sainsbury's Bank and Sainsbury's Argos. The group's head office is in the Sainsbury's Store Support Centre in Holborn Circus, City of London.[5] The group also has interests in property.","02039 253458","Mr.  Orie  Lind","sainsburysisthesecondlargestchainofsupermarketsintheunitedkingdom,2witha16.9%shareoftheuksupermarketsector.3foundedin1869,byjohnjamessainsburywithashopindrurylane,london,thecompanybecamethelargestgroceryretailerin1922,wasanearlyadopterofself-serviceretai","02039 253458","[ ""A1"", ""A2"", ""A4"" ]","","TRUE","",NA
"Cory McKenzie","vincenzo_mosciski41@gmail.com","01259 710176","Cory  Mc Kenzie","vincenzo_mosciski41@gmail.com","01259 710176","","","","",NA
"Dominique Altenwerth","caroline61@gmail.com","01272 092655","Dominique  Altenwerth","caroline61@gmail.com","01272 092655","","","","",NA
"Darian Welch","pierce_hagenes@hotmail.com","05521 485391","Darian  Welch","pierce_hagenes@hotmail.com","05521 485391","","","","",NA
"Jettie Lindgren","maureen.hoeger@hotmail.com","01312 307950","Jettie  Lindgren","maureen.hoeger@hotmail.com","01312 307950","","","","",NA
"Lester Kuhlman","kennedy.krajcik@yahoo.com","01715 861953","Lester  Kuhlman","kennedy.krajcik@yahoo.com","01715 861953","","","","",NA
"Katherine Gutmann","jevon_marquardt@gmail.com","05691 164446","Katherine  Gutmann","jevon_marquardt@gmail.com","05691 164446","","","","",NA
"Dorris Jacobi","noel_cummerata11@hotmail.com","05595 420017","Dorris  Jacobi","noel_cummerata11@hotmail.com","05595 420017","","","","",NA
"Arjun Wisoky PhD","neal69@gmail.com","03102 997881","Arjun  Wisoky  Ph D","neal69@gmail.com","03102 997881","","","","",NA
"Penelope Nikolaus","ethan52@gmail.com","09912 777223","Penelope  Nikolaus","ethan52@gmail.com","09912 777223","","","","",NA
"Claire Buckridge","gwen_muller@hotmail.com","03848 390618","Claire  Buckridge","gwen_muller@hotmail.com","03848 390618","","","","",NA
"Isom Wiza","dora9@hotmail.com","01351 523860","Isom  Wiza","dora9@hotmail.com","01351 523860","","","","",NA
"Sage Konopelski MD","alysha.weber1@hotmail.com","05002 521200","Sage  Konopelski  M D","alysha.weber1@hotmail.com","05002 521200","","","","",NA
"Vada Lehner","eula.johnston@hotmail.com","05532 512778","Vada  Lehner","eula.johnston@hotmail.com","05532 512778","","","","",NA
"Suzanne Mayert","manuela82@yahoo.com","05632 538964","Suzanne  Mayert","manuela82@yahoo.com","05632 538964","","","","",NA
"Selina Schinner","danika.kirlin23@hotmail.com","01697 750140","Selina  Schinner","danika.kirlin23@hotmail.com","01697 750140","","","","",NA
"Gilbert Kertzmann","ludwig36@yahoo.com","02866 953328","Gilbert  Kertzmann","ludwig36@yahoo.com","02866 953328","","","","",NA
"Thelma Wuckert","stella_fritsch@hotmail.com","05607 646087","Thelma  Wuckert","stella_fritsch@hotmail.com","05607 646087","","","","",NA
"Mittie Gibson","derick53@gmail.com","01158 770563","Mittie  Gibson","derick53@gmail.com","01158 770563","","","","",NA
"Dr. Florine Gerlach","westley48@yahoo.com","01710 763782","Dr.  Florine  Gerlach","westley48@yahoo.com","01710 763782","","","","",NA
"Misael Beahan","allen_balistreri@hotmail.com","01150 542005","Misael  Beahan","allen_balistreri@hotmail.com","01150 542005","","","","",NA
"Delmer Powlowski","brenda54@hotmail.com","08994 826898","Delmer  Powlowski","brenda54@hotmail.com","08994 826898","","","","",NA
"Abelardo Brown","skyla_mueller20@yahoo.com","02625 571018","Abelardo  Brown","skyla_mueller20@yahoo.com","02625 571018","","","","",NA
